LEGAL_ENTITY_NAME,PREMISES_NAME,DHB,STREET_ADDRESS_OTHER,STREET_ADDRESS,STREET_ADDRESS_SUBURB_RD,STREET_ADDRESS_TOWN_CITY,STREET_ADDRESS_POST_CODE
280 Queen Street (2005) Limited,Unichem Queen Street Pharmacy,Auckland DHB,,280 Queen Street,Auckland Central,Auckland,1010
3 Kings Plaza Pharmacy 2002 Limited,3 Kings Plaza Pharmacy,Auckland DHB,,536 Mount Albert Road,Three Kings,Auckland,1042
3'S Company Limited,Wairoa Pharmacy,Hawkes Bay DHB,,8 Paul Street,,Wairoa,4108
5 X Roads Limited,Five Crossroads Pharmacy,Waikato DHB,,280 Peachgrove Road,Fairfield,Hamilton,3214
A & E Chemist Limited,Avondale Family Chemist,Auckland DHB,,1784 Great North Road,Avondale,Auckland,1026
A & V Harley Limited,Harley's Pharmacy,Nelson Marlborough DHB,,11 Tahunanui Drive,Tahunanui,Nelson,7011
A and B Pharmacy Limited,Mercury Bay Pharmacy,Waikato DHB,,28 Albert Street,Whitianga,Waikato,3510
AARIA Pharmaceuticals Limited,Takapuna Pharmacy,Waitemata DHB,,1/445 Lake Road,Takapuna,Auckland,0622
APS Pharmacy Limited,Andrew Spence Pharmacy,Hawkes Bay DHB,,30 Maadi Road,Onekawa,Napier,4110
APS Pharmacy Limited,Greenmeadows Pharmacy,Hawkes Bay DHB,,34 Gloucester Street,Greenmeadows,Napier,4112
APS Pharmacy Limited,Raureka Pharmacy,Hawkes Bay DHB,,901 Gordon Road,Raureka,Hastings,4120
ARK 2011 Limited,Unichem Sunnynook Pharmacy,Waitemata DHB,Shop 4 - 5 Sunnynook Shopping Centre,120 Sunnynook Road,Sunnynook,Auckland,0620
ARK 2014 Limited,Barry's Medical Centre Pharmacy,Waitemata DHB,,32 Anzac Road,Browns Bay,Auckland,630
AVYRA Pharmaceuticals Limited,St Heliers Pharmacy,Auckland DHB,,12 Polygon Road,St Heliers,Auckland,1071
Aberfeldy Pharmacy Limited,Family Care Pharmacy,Counties Manukau DHB,,17C Aberfeldy Avenue,Highland Park,AUCKLAND,2010
Adamson's Pharmacy Limited,Unichem Adamson's Pharmacy,Bay of Plenty DHB,,52 King Street,,Whakatane,3120
Ahirangi Allied Limited,Medicines to Midnight,Auckland DHB,Shop 3,160 Broadway,Newmarket,Auckland,1023
Ahuriri Pharmacy Limited,Ahuriri Pharmacy,Hawkes Bay DHB,,1/91 Bridge Street,Ahuriri,Napier,4110
Ajent Limited,Ferry Road Pharmacy,Canterbury DHB,,244 Ferry Road,Waltham,Christchurch,8011
Akarana Developments Limited,Gordon's Pharmacy,Tairawhiti DHB,,1 Mangapapa Road,Mangapapa,Gisborne,4010
Al-Ferdous Limited,Te Puna Hauora Pharmacy,Waitemata DHB,,58 Akoranga Drive,Northcote,Auckland,0627
Alba Pharmacies Limited,Unichem Faulkners Pharmacy,Bay of Plenty DHB,,398 Cameron Road,,Tauranga,3110
Alba Pharmacies Limited,Unichem Fifth Avenue Pharmacy,Bay of Plenty DHB,,40 Fifth Avenue,,Tauranga,3110
Albany Pharmacy Limited,Unichem Albany Metro Pharmacy,Waitemata DHB,,139-163 Don McKinnon Drive,Albany,Auckland,0632
Albany Street Pharmacy Limited,Albany Street Pharmacy Limited,Southern DHB,,27 Albany Street,North Dunedin,Dunedin,9016
Albany Village Pharmacy (2018) Limited,Albany Village Pharmacy (2018) Limited,Waitemata DHB,,"Unit 1, 287 Oteha Valley Road",Albany,Auckland,0632
Aldridge Forest Planting Limited,Edgecumbe Pharmacy,Bay of Plenty DHB,"Shop 2, Riverslea Mall",26 College Road,,Edgecumbe,3120
Alexandra Pharmacy (2013) Limited,Unichem Alexandra Medical Pharmacy,Southern DHB,,93 Tarbert Street,,Alexandra,9320
Alexandra Pharmacy (2013) Limited,Unichem Alexandra Pharmacy and Bookshop,Southern DHB,,4 Centennial Avenue,,Alexandra,9320
Alkabban Limited,Unichem Wyndham Street Pharmacy,Auckland DHB,,33 Wyndham Street,Auckland Central,Auckland,1010
Alkaloid Pharm Limited,Waymouth's Pharmacy,Auckland DHB,,237 Manukau Road,Epsom,Auckland,1023
All Seasons Pharmacy Limited,Unichem All Seasons Pharmacy,Waitemata DHB,"Ground Floor, All Seasons Centre",288 Te Atatu Road,Te Atatu South,Auckland,0610
Allen's Village Pharmacy Limited,Allen's Village Pharmacy Limited,Waitemata DHB,Kumeu Village,88 Main Road,,Kumeu,0810
Alquimia Limited,CookStPharmacy,MidCentral DHB,,281 College Street,West End,Palmerston North,4412
Amana Healthcare Limited,Taiwhenua Pharmacy,Hawkes Bay DHB,,821 Orchard Road,Camberley,Hastings,4120
Amberley Pharmacy Practice Limited,Amberley Pharmacy Practice Limited,Canterbury DHB,,127a Carters Road,,Amberley,7410
Antidote (NZ) Limited,Antidote Central,Southern DHB,Ground Floor,245 George Street,Dunedin Central,Dunedin,9016
Antidote (NZ) Limited,Antidote Gardens,Southern DHB,"Shop 2, Gardens Shopping Mall",1 North Road,North East Valley,Dunedin,9010
Antidote (NZ) Limited,Antidote North,Southern DHB,,15 St David Street,Dunedin North,Dunedin,9016
Antidote (NZ) Limited,Antidote Octagon,Southern DHB,,2 George Street,Dunedin Central,Dunedin,9016
Antidote (NZ) Limited,Antidote South,Southern DHB,"Shops 4A and 5, South City Mall",132 Hillside Road,South Dunedin,Dunedin,9012
Antidote (NZ) No.2 Limited,Antidote Macandrew,Southern DHB,,98 Macandrew Road,South Dunedin,Dunedin,9012
Antidote (NZ) No.2 Limited,Antidote Meridian,Southern DHB,"Shop G10A, Meridian Mall",285 George Street,Dunedin Central,Dunedin,9016
Antidote (NZ) No.2 Limited,Antidote Queenstown,Southern DHB,"Shop C05, Queenstown Central",19 Grant Road,Frankton,Queenstown,9300
Apollo Pharmacy (2014) Limited,Unichem Apollo Drive Pharmacy,Waitemata DHB,,119 Apollo Drive,Rosedale,Auckland,0632
Apothecary Investments Limited,Quay Street Pharmacy,Auckland DHB,Shop 1,76 Quay Street,Auckland Central,Auckland,1010
Apothecary Limited,Kerry Nott Pharmacy (2014),Bay of Plenty DHB,,114B Church Street,,Opotiki,3122
Apothecary Limited,Opotiki Pharmacy 2013,Bay of Plenty DHB,,110 Church Street,,Opotiki,3122
Araba Pharmacy Limited,Mountainview Pharmacy,Taranaki DHB,,65 Victoria Street,,Hawera,4610
Araba Pharmacy Limited,Opunake Pharmacy,Taranaki DHB,,26 Napier Street,,Opunake,4616
Araba Pharmacy Limited,Pharmacy @ Care First,Taranaki DHB,,99 Tukapa Street,Westown,New Plymouth,4310
Araba Pharmacy Patea Limited,Patea Pharmacy,Taranaki DHB,,71 Egmont Street,,PATEA,4520
Aranui Pharmacy (2006) Limited,"Eastern Pharmacy, Aranui",Canterbury DHB,,338 Pages Road,Aranui,Christchurch,8061
Ascot Pharmacy (2006) Limited,Ascot Pharmacy,Auckland DHB,,90 Green Lane East,Remuera,Auckland,1051
Ascot Pharmacy Invercargill Limited,Unichem Ascot Pharmacy,Southern DHB,,706 Tay Street,Hawthorndale,Invercargill,9810
Ashburton Pharmacy (1978) Limited,Life Pharmacy Ashburton,Canterbury DHB,,262 East Street,,Ashburton,7700
Ashbury Pharmacy 2015 Limited,Ashbury Pharmacy,South Canterbury DHB,"Shop 14, Northtown Mall",98 Evans Street,Waimataitai,Timaru,7910
Ashleigh Court Pharmacy Limited,Ashleigh Court Pharmacy,Capital and Coast DHB,,100 Riddiford Street,Newtown,Wellington,6021
Auckland District Health Board,Auckland Hospital Pharmacy,Auckland DHB,"Pharmacy Department, Level 6, Support Building, Auckland City Hospital",2 Park Road,Grafton,Auckland,1023
Auckland District Health Board,Greenlane Clinical Centre Pharmacy,Auckland DHB,"Room G4-302, Ground floor, Building 4, Greenlane Clinical Centre",214 Green Lane West,Epsom,Auckland,1051
Avalon Medical Centre Pharmacy Limited,Avalon Medical Centre Pharmacy Limited,Hutt Valley DHB,,838 High Street,Boulcott,Lower Hutt,5011
Avondale Community Pharmacy Limited,Thornton's Pharmacy,Auckland DHB,,1895 Great North Road,Avondale,Auckland,1026
Avonhead Pharmacy (2001) Limited,Avonhead Pharmacy (2001) Limited,Canterbury DHB,"Shop 22, Avonhead Shopping Centre",210 Withells Road,Avonhead,Christchurch,8042
Azman Rashid Haroon,Chemist Warehouse Albany,Waitemata DHB,"Tenancy T10A, Albany Mega Centre",140 Don McKinnon Drive,Albany,Auckland,0632
Azman Rashid Haroon,Chemist Warehouse Botany,Counties Manukau DHB,,3/500 Ti Rakau Drive,Northpark,Auckland,2013
Azman Rashid Haroon,Chemist Warehouse St Lukes,Auckland DHB,"Shop A9, St Lukes Mega Centre",1 Wagener Place,Mount Albert,Auckland,1025
Azman Rashid Haroon,Chemist Warehouse Westfield Manukau,Counties Manukau DHB,"Shop S196, Westfield Shopping Centre",5 Putney Way,Manukau,Auckland,2104
Azman Rashid Haroon,Chemist Warehouse Westgate,Waitemata DHB,Tenancy H3,32 Maki Street,Westgate,Auckland,0814
B T Roberts Limited,Roberts Pharmacy,South Canterbury DHB,Unit 1,45 Heaton Street,Parkside,Timaru,7910
B and C Pharmacy Limited,Unichem Lynnmall,Waitemata DHB,"Shop W.516, Lynnmall Shopping Centre",3058 Great North Road,New Lynn,Auckland,0600
B&N14 Limited,Anderson's Exchange Pharmacy,Southern DHB,Ground Floor,8 Broadway,Dunedin Central,DUNEDIN,9016
Babington's Pharmacy Limited,Unichem North End Pharmacy,Southern DHB,,411B Thames Highway,Oamaru North,Oamaru,9400
Baillie & Lewis 2002 Limited,Baillie and Lewis Pharmacy,Southern DHB,,3 - 7A Martin Street,Strathern,Invercargill,9812
Bakerfield Chemist 2000 Limited,Bakerfield Chemist 2000 Limited,Counties Manukau DHB,,16A Bakerfield Place,Manukau,Auckland,2104
Balmac Pharmacy 2011 Limited,Balmac Pharmacy 2011 Limited,Southern DHB,,128 Helensburgh Road,Wakari,Dunedin,9010
Bargain Chemist Limited,Bargain Chemist Limited,Canterbury DHB,,117a Riccarton Road,Upper Riccarton,Christchurch,8041
Bargain Chemist Northwood Limited,Bargain Chemist Northwood,Canterbury DHB,"Unit I, Supa Centa",1 Radcliffe Road,Belfast,Christchurch,8051
Bargain Chemist Wgt Limited,Bargain Chemist Wellington,Capital and Coast DHB,,73 Manners Street,Te Aro,Wellington,6011
Barnett's Wairakei Road Pharmacy Limited,Barnett's Wairakei Road Pharmacy,Canterbury DHB,,"Unit 4, 501 Wairakei Road",Burnside,Christchurch,8053
Barnett's West End Pharmacy Limited,Barnett's West End Pharmacy,Canterbury DHB,Unit B,93 Cambridge Terrace,Christchurch Central,Christchurch,8013
Barrington Health Centre Pharmacy Limited,Wilsons Health Pharmacy,Canterbury DHB,,16 Athelstan Street,Spreydon,Christchurch,8024
Barrington Pharmacy Limited,Wilsons Barrington Pharmacy,Canterbury DHB,,256 Barrington Street,Spreydon,CHRISTCHURCH,8024
Bay Health Pharmacy Limited,Bay Health Pharmacy Limited,Bay of Plenty DHB,Tauranga Hospital,829 Cameron Road,Tauranga South,Tauranga,3112
Bay Of Plenty Pharmacy Services Limited,Bethlehem Pharmacy,Bay of Plenty DHB,,229D State Highway 2,Bethlehem,TAURANGA,3110
Bay Of Plenty Pharmacy Services Limited,Kawerau Pharmacy,Bay of Plenty DHB,"Unit B, 2 Tarawera Court",Islington Street,,Kawerau,3127
Bay Of Plenty Pharmacy Services Limited,Smart Chemist Bethlehem,Bay of Plenty DHB,,16 Bethlehem Road,Bethlehem,TAURANGA,3110
Bay Pharmacies 2015 Limited,Unichem Chadwick Pharmacy,Bay of Plenty DHB,,120 Chadwick Road,Greerton,Tauranga,3112
Bay Pharmacies 2015 Limited,Unichem Cherrywood Pharmacy,Bay of Plenty DHB,,52 - 54 Cherrywood Drive,Otumoetai,TAURANGA,3110
Bay Pharmacies 2015 Limited,Unichem Otumoetai Pharmacy,Bay of Plenty DHB,,506 Otumoetai Road,Otumoetai,TAURANGA,3110
Bay Pharmacies 2015 Limited,Unichem Racecourse Pharmacy,Bay of Plenty DHB,,1352 Cameron Road,Gate Pa,Tauranga,3112
Bay View Village Pharmacy Limited,Bay View Village Pharmacy,Hawkes Bay DHB,,44A Petane Road,Bay View,Napier,4104
Bay of Islands Pharmacies Limited,Unichem Kerikeri Medical Centre Pharmacy,Northland DHB,,"Unit 8, 4 Homestead Road",,Kerikeri,0230
Bay of Islands Pharmacies Limited,Unichem Kerikeri Pharmacy,Northland DHB,,64 Kerikeri Road,,Kerikeri,0230
Bay of Islands Pharmacies Limited,Unichem Kerimed Pharmacy,Northland DHB,,2 Ranui Avenue,,Kerikeri,0230
Bay of Plenty District Health Board,Tauranga Hospital Pharmacy,Bay of Plenty DHB,Tauranga Hospital,829 Cameron Road,Tauranga South,Tauranga,3112
Bay of Plenty District Health Board,Whakatane Hospital Pharmacy,Bay of Plenty DHB,Whakatane Hospital,Corner of Garaway & Stewart Streets,,Whakatane,3120
Bayfair Pharmacy (2010) Limited,Life Pharmacy Bayfair,Bay of Plenty DHB,"Shop T204, Bayfair Shopping Complex",corner of Maunganui & Girven Roads,Bayfair,MT MAUNGANUI,3116
Baylis The Chemist Limited,Baylis The Chemist,Southern DHB,,267 King Edward Street,South Dunedin,Dunedin,9012
Bays Health Chemist Limited,Bays Health Pharmacy,Waitemata DHB,,13-15 Bute Road,Browns Bay,Auckland,0630
Bayview Pharmacy 2018 Limited,Bayview Pharmacy 2018 Limited,Southern DHB,"Shop 2, The Warehouse",64 Hillside Road,South Dunedin,Dunedin,9012
Beachlands Pharmacy Limited,Unichem Beachlands Pharmacy,Counties Manukau DHB,,43 Wakelin Road,Beachlands,Auckland,2018
Bealey Ave Pharmacy Limited,Unichem Bealey Ave Pharmacy,Canterbury DHB,Unit 3,212 Bealey Avenue,Christchurch Central,Christchurch,8013
Bealey Pharmacy (1986) Limited,Qualmed (Quality Medication Management),Canterbury DHB,,14 Pope Street,Addington,CHRISTCHURCH,8011
Beauty & Vitality Limited,Life Pharmacy Milford,Waitemata DHB,Shop M106 Milford Shopping Centre,24 Milford Road,Milford,Auckland,0620
Bell's Pharmacy Lyttelton Limited,Lyttelton Pharmacy & Post Centre,Canterbury DHB,,19 London Street,,LYTTELTON,8082
Belmont Pharmacy Limited,Belmont Pharmacy,Waitemata DHB,,143 Lake Road,Belmont,Auckland,0622
Bentley Ave Pharmacy Limited,Bentley Ave Pharmacy Limited,Waitemata DHB,Shop 7,111 Bentley Avenue,Glenfield,Auckland,0629
Best Care Pharmacy Limited,Best Care Pharmacy,Counties Manukau DHB,,175 Pakuranga Road,Pakuranga,Auckland,2010
Birkdale Pharmacy 1998 Limited,Birkdale Pharmacy 1998 Limited,Waitemata DHB,,164 Birkdale Road,Birkdale,AUCKLAND,0626
Birkenhead Pharmacy (2011) Limited,Life Pharmacy Birkenhead,Waitemata DHB,,32 Mokoia Road,Birkenhead,Auckland,0626
Bishop Centre Pharmacy Limited,Bishop Centre Pharmacy,Counties Manukau DHB,,8Q Bishop Lenihan Place,East Tamaki,AUCKLAND,2013
Bishopdale Pharmacy Limited,Unichem Bishopdale Pharmacy,Canterbury DHB,,37 and 39 Bishopdale Court,Bishopdale,CHRISTCHURCH,8053
Blockhouse Bay Pharmacy 2008 Limited,Blockhouse Bay Pharmacy,Auckland DHB,,526 - 530 Blockhouse Bay Road,Blockhouse Bay,Auckland,0600
Bongard's Pharmacy Limited,Bongards Pharmacy Limited,Bay of Plenty DHB,,1303 Cameron Road,Gate Pa,Tauranga,3112
Botanical Road Pharmacy Limited,Botanical Road Pharmacy Limited,MidCentral DHB,,123 Botanical Road,Takaro,Palmerston North,4412
Botany Downs Pharmacy Limited,Unichem Mangere Medical Pharmacy,Counties Manukau DHB,Ground Floor,215 Massey Road,Mangere East,Auckland,2024
Botany Pharmacy Limited,Unichem Botany Pharmacy,Counties Manukau DHB,,4 Crescent Lane,East Tamaki,AUCKLAND,2013
Botany Road Pharmacy Limited,Botany Road Pharmacy Limited,Counties Manukau DHB,Unit M,301 Botany Road,Golflands,AUCKLAND,2013
Botany Town Centre Pharmacy Limited,Life Pharmacy Botany,Counties Manukau DHB,Shop 17,Town Centre Drive,Botany,AUCKLAND,2013
Bowman Pharmacy Services Limited,Paraparaumu Beach Pharmacy,Capital and Coast DHB,Shop 1,17 Seaview Road,Paraparaumu Beach,Paraparaumu,5032
Brady Pharmacy Limited,Tamatea Pharmacy,Hawkes Bay DHB,,"Shop 7 & 8, 7 Leicester Avenue",Tamatea,Napier,4112
Bramwells Pharmacy Limited,Unichem Bramwells Pharmacy,Tairawhiti DHB,,232 Gladstone Road,,GISBORNE,4010
Brighton Village Pharmacy Limited,Unichem Brighton Village Pharmacy,Canterbury DHB,,183 Shaw Avenue,New Brighton,Christchurch,8083
Brookfield Pharmacy Limited,Unichem Brookfield Pharmacy,Bay of Plenty DHB,"Shop 3 and 4, Brookfield Shopping Centre",85 Bellevue Road,Brookfield,Tauranga,3110
Browns Bay Pharmacy (2018) Limited,Unichem Browns Bay Pharmacy,Waitemata DHB,,66 Clyde Road,Browns Bay,Auckland,0630
Browns Road Community Pharmacy Limited,Unichem Browns Road Pharmacy,Counties Manukau DHB,Unit 7,235 Browns Road,Manukau,AUCKLAND,2102
Bruce Stimpson Pharmacy Limited,Aramoho Pharmacy,Whanganui DHB,,142 Somme Parade,Aramoho,WHANGANUI,4500
Buchanan's Pharmacy Limited,Unichem Buchanan's Pharmacy,Northland DHB,"Shops 1-5, Paramount Plaza",81 Paramount Parade,Tikipunga,WHANGAREI,0112
Buchanan's Pharmacy Limited,Unichem Buchanans Kiripaka Pharmacy,Northland DHB,,157 Kiripaka Road,Tikipunga,Whangarei,0110
Buchanan's Pharmacy Limited,Unichem Buchanans Mansfield Pharmacy,Northland DHB,,7 Mansfield Terrace,Regent,Whangarei,0112
Bunny Street Pharmacy Limited,City Pharmacies Bunny Street,Capital and Coast DHB,,9 Bunny Street,Pipitea,WELLINGTON,6011
Bureta Pharmacy Limited,Bureta Pharmacy Limited,Bay of Plenty DHB,,78 Bureta Road,Otumoetai,TAURANGA,3110
Burns Pharmacy (1991) Limited,Burns Pharmacy (1991) Limited,Hutt Valley DHB,,292 Jackson Street,Petone,LOWER HUTT,5012
Burwood Hospital Pharmacy Limited,Unichem Burwood Hospital Pharmacy,Canterbury DHB,Shop G544,"Main Foyer, 300 Burwood Road",Burwood,Christchurch,8083
Burwood Pharmacy (1998) Limited,Burwood Pharmacy,Canterbury DHB,,11 Parnwell Street,Burwood,Christchurch,8083
Bush Road Pharmacy Limited,David's Pharmacy,Northland DHB,Unit D,6 Three Mile Bush Road,Kamo,WHANGAREI,0185
CCGI Limited,Medical Centre Pharmacy,Nelson Marlborough DHB,,114 High Street,,PICTON,7220
CCGI Limited,Picton Health Care Pharmacy,Nelson Marlborough DHB,,6 High Street,,PICTON,7220
CHB Apothecary Limited,Unichem Waipukurau Pharmacy,Hawkes Bay DHB,Ground Floor,71-75 Ruataniwha Street,,Waipukurau,4200
Calm Future Limited,Eltham Pharmacy,Taranaki DHB,,130 High Street,,Eltham,4322
Calm Future Limited,Stratford Pharmacy,Taranaki DHB,,235 Broadway,,STRATFORD,4332
Cameron Road Dispensary Limited,Pharmacy On Cameron,Bay of Plenty DHB,Shop 3,850 Cameron Road,Tauranga South,Tauranga,3112
Campbell Pharmacy 2015 Limited,Doubtless Bay Pharmacy,Northland DHB,"Shop 4, Coopers Beach Shopping Centre",137C State Highway 10,,Coopers Beach,0420
Cannons Creek Medical Centre Pharmacy Limited,Cannons Creek Medical Centre Pharmacy,Capital and Coast DHB,,221 Bedford Street,Cannons Creek,Porirua,5024
Canterbury District Health Board,Ashburton Hospital Pharmacy,Canterbury DHB,,28 Elizabeth Street,Allenton,Ashburton,7700
Canterbury District Health Board,Burwood Hospital Pharmacy,Canterbury DHB,,255 Mairehau Road,Burwood,Christchurch,8083
Canterbury District Health Board,Christchurch Hospital Pharmacy,Canterbury DHB,,2 Riccarton Avenue,Christchurch Central,Christchurch,8011
Canterbury District Health Board,Hillmorton Hospital Pharmacy,Canterbury DHB,"Hillmorton Hospital, Avon Administration Block (Building 6)",Sylvan Street and Annex Road South,Hillmorton,CHRISTCHURCH,8014
Canterbury Pharmacy Management Limited,North Avon Pharmacy,Canterbury DHB,,"Shop 2, 76 North Avon Road",Richmond,CHRISTCHURCH,8013
Capital and Coast District Health Board,Wellington Hospital Pharmacy,Capital and Coast DHB,Wellington Hospital,Riddiford Street,Newtown,WELLINGTON,6021
Care Chemist Pakuranga (2008) Limited,Unichem Pakuranga Pharmacy,Counties Manukau DHB,,11-13 Cortina Place,Pakuranga,Auckland,2010
Care Chemists (Mount Maunganui) Limited,Unichem Mt Dispensary,Bay of Plenty DHB,,42 Girven Road,,MOUNT MAUNGANUI,3116
Care Pharmacy Limited,Care Pharmacy,Waitemata DHB,,11 Coliseum Drive,Albany,Auckland,0632
Care Plus Pharmacy Limited,Hollings Care Plus Pharmacy,Waitemata DHB,,226 West Coast Road,Glen Eden,AUCKLAND,0602
Carole Baxter Limited,Unichem Tuakau,Waikato DHB,,51-53 George Street,,TUAKAU,2121
Casebrook Pharmacy (2010) Limited,Casebrook Pharmacy (2010) Limited,Canterbury DHB,,14 Grampian Street,Casebrook,CHRISTCHURCH,8051
Cavendish Drive Pharmacy Limited,Cavendish Drive Pharmacy,Counties Manukau DHB,Unit A,175 - 195 Cavendish Drive,Papatoetoe,AUCKLAND,2014
Caversham Pharmacy (2005) Limited,Caversham Pharmacy (2005) Limited,Southern DHB,,287 South Road,Caversham,DUNEDIN,9012
Central City Pharmacy (Wanganui) Limited,Central City Pharmacy,Whanganui DHB,,121 Victoria Avenue,,WHANGANUI,4500
Central Otago Pharmacy Limited,Alexandra Pharmacy,Southern DHB,,60 Centennial Avenue,,ALEXANDRA,9320
Central Parade & Dee St Pharmacy Limited,Central Parade & Dee St Pharmacy Limited,Bay of Plenty DHB,,"Unit 7, 536 Maunganui Road",,Mount Maunganui,3116
Central Pharmacy (2014) Limited,Central Drive-In Pharmacy,MidCentral DHB,,176 Featherston Street,Roslyn,Palmerston North,4410
Central Pharmacy 2000 Limited,Unichem Central Pharmacy Rotorua,Lakes DHB,,1181 Amohia Street,,ROTORUA,3010
Central Pharmacy Mosgiel Limited,Unichem Central Pharmacy Mosgiel,Southern DHB,,130 Gordon Road,,MOSGIEL,9024
CentralMed Pharmacy Limited,MyPharmacy CentralMed,Bay of Plenty DHB,,Corner 14th Avenue and 434 Devonport Road,,TAURANGA,3140
Centre City Pharmacy (2004) Limited,Unichem Centre City Pharmacy,Southern DHB,Shop 10,133 Great King Street,Dunedin Central,Dunedin,9016
Centre Pharmacy Limited,Unichem Campus Pharmacy,Auckland DHB,"Room 193, Building 315, Level 1, Student Commons",9 Symonds Street,Eden Terrace,AUCKLAND,1010
Centre Pharmacy Limited,Unichem Onehunga Centre Pharmacy,Auckland DHB,,73 Church Street,Onehunga,AUCKLAND,1061
Centre Pharmacy Limited,Unichem Onehunga Main Street Pharmacy,Auckland DHB,,227 Onehunga Mall,Onehunga,AUCKLAND,1061
Chapel Park Pharmacy Limited,Chapel Park Pharmacy,Counties Manukau DHB,,158 Chapel Road,Flat Bush,Auckland,2019
Charleston Pharmacy Limited,Charleston Pharmacy,Hawkes Bay DHB,,136 Hastings Street,Napier South,NAPIER,4110
Chartwell Pharmacy Limited,Chartwell Pharmacy Limited,Waitemata DHB,,31A Chartwell Avenue,Glenfield,Auckland,0629
Chartwell Square Pharmacy Limited,Life Pharmacy Chartwell,Waikato DHB,"Shop 123, Chartwell Shopping Centre",Corner Comries & Hukanui Roads,Chartwell,Hamilton,3210
Chemist Express Limited,Unichem 104 Queen St. Pharmacy,Auckland DHB,,104 Queen Street,Auckland Central,AUCKLAND,1010
Chemist Express Limited,Unichem 238 Queen St. Pharmacy,Auckland DHB,,238 Queen Street,Auckland Central,AUCKLAND,1010
Chemist Plus Limited,Chemist Plus,Auckland DHB,,435 Khyber Pass Road,Newmarket,Auckland,1023
Chemist Trading Limited,Windsor Medical Pharmacy,Waitemata DHB,Shop 2,51 Corinthian Drive,Albany,AUCKLAND,0632
Chemist Works Limited,Unichem Botany Junction Pharmacy,Counties Manukau DHB,,110 Michael Jones Drive,Flatbush,Auckland,2016
Chemistlink Limited,Bradburns Value Pharmacy,Auckland DHB,,1248 Dominion Road,Mount Roskill,Auckland,1041
Chens Consultancy Limited,Eden Park Pharmacy,Auckland DHB,,168 Sandringham Road,Sandringham,Auckland,1025
Choice Mission Company Limited,Taihape Pharmacy,Whanganui DHB,,85 Hautapu Street,,TAIHAPE,4720
Christchurch Pharmacy (2015) Limited,Life Pharmacy Merivale,Canterbury DHB,,193 Papanui Road,Merivale,Christchurch,8014
Churton Park Pharmacy Limited,Village Pharmacy Churton Park,Capital and Coast DHB,Churton Park Village,103E Westchester Drive,Churton Park,Wellington,6037
City Health Pharmacy Limited,City Health Pharmacy,MidCentral DHB,,22 Victoria Avenue,Terrace End,PALMERSTON NORTH,4410
City Medical Centre Pharmacy (2017) Limited,City Medical Centre Pharmacy,Capital and Coast DHB,,"Level 2, 190 Lambton Quay",Wellington Central,Wellington,6011
CityMed Pharmacy Limited,CityMed Pharmacy,Auckland DHB,,8 Albert Street,Auckland Central,Auckland,1010
Clark's Pharmacy Limited,Clark's Pharmacy Limited,Waikato DHB,,2 Rosemont Road,,Waihi,3610
Clendon Pharmacy Limited,Clendon Pharmacy Limited,Counties Manukau DHB,Shop C6 Clendon Town Centre,Palmers Road,Manurewa West,Auckland,2103
Clevedon Road Pharmacy Limited,Clevedon Road Pharmacy Limited,Counties Manukau DHB,,76 Clevedon Road,,Papakura,2110
Clevedon Village Pharmacy (2008) Limited,Clevedon Village Pharmacy,Counties Manukau DHB,Shop 1,9 Papakura-Clevedon Road,RD 2,Papakura,2582
Clinic Pharmacy Remuera Limited,Clinic Pharmacy Remuera,Auckland DHB,,122 Remuera Road,Remuera,Auckland,1050
Clive Cannons Limited,Clive's Chemist,Hutt Valley DHB,,20 - 21 Queen Street,Wainuiomata,LOWER HUTT,5014
Coelho's Pharmacy Limited,Unichem Drury Pharmacy,Counties Manukau DHB,Shops 6 & 7,231-233 Great South Road,Drury,Auckland,2113
Comins Pharmacy Limited,Comins Pharmacy Limited,Waikato DHB,,67 Victoria Street,,Cambridge,3434
Commodore Pharmacy (1989) Limited,Commodore Pharmacy (1989) Limited,Waitemata DHB,,47 Clyde Road,Browns Bay,AUCKLAND,0630
Community Care Pharmacy Limited,Community Care Pharmacy,Nelson Marlborough DHB,,14 Redwood Street,,BLENHEIM,7201
Community Pharmacy Limited,Wises Pharmacy,Canterbury DHB,,"Shop 4, 155 Wills Street",,Ashburton,7700
Connolly Street Pharmacy Limited,Connolly Street Pharmacy,Hutt Valley DHB,,"Shop 3, 2 Connolly Street",Hutt Central,Lower Hutt,5010
Coromandel Pharmacy 2014 Limited,Unichem Coromandel Pharmacy,Waikato DHB,,89 Kapanga Road,,COROMANDEL,3506
Counties Manukau District Health Board,Haumanu Pharmacy Middlemore,Counties Manukau DHB,"Middlemore Hospital, Ground Floor","Scott Building, 100 Hospital Road",Mangere East,Auckland,2025
Counties Manukau District Health Board,Middlemore Hospital Pharmacy,Counties Manukau DHB,"Pharmacy Department, Basement Kidz First Building, Middlemore Hospital,","100 Hospital Road,","Mangere East,",Auckland,2025
Cox's 7 Day Pharmacy Limited,Unichem Cox's 7 Day Pharmacy,Waitemata DHB,,2 Mayfair Place,Glen Innes,Auckland,1072
Cranford Pharmacy Limited,Cranford Pharmacy,Canterbury DHB,,115 Sherborne Street,St Albans,CHRISTCHURCH,8014
Cranwells Pharmacy (2011) Limited,Cranwell's Pharmacy (2011) Limited,Auckland DHB,,573 Remuera Road,Remuera,Auckland,1050
Crisp's Healthy Living Pharmacy Limited,Unichem Crisps Pharmacy,Canterbury DHB,Shop 2,283 Wairakei Road,Bryndwr,Christchurch,8041
Cromwell Pharmacy (2008) Limited,Cromwell Pharmacy (2008) Limited,Southern DHB,,22 The Mall,,CROMWELL,9310
Cziharz (NZ) Limited,Gonville Pharmacy,Whanganui DHB,,121 Alma Road,Gonville,WHANGANUI,4501
D & L Bell Limited,Sumner Pharmacy,Canterbury DHB,,17 Wakefield Avenue,Sumner,CHRISTCHURCH,8081
D and M Savage Limited,Henderson Valley Pharmacy,Waitemata DHB,,249 Henderson Valley Road,Henderson,Auckland,0612
D. H. Saunders Pharmacy Limited,Conifer Grove Pharmacy,Counties Manukau DHB,"Units 1 & 2, Midas Mulligan House",64 Walter Strevens Drive,Takanini,AUCKLAND,2112
DBS Pharmacy Limited,Girven Road Pharmacy,Bay of Plenty DHB,"Shop 3, Ground Floor",77 Girven Road,,Mount Maunganui,3116
DBS Pharmacy Limited,Great Barrier Pharmacy,Auckland DHB,,117 Hector Sanderson Road,RD 1,GREAT BARRIER ISLAND,0991
Dannemora Community Pharmacy Limited,Unichem Dannemora Pharmacy,Counties Manukau DHB,,"Unit B, 1 Redcastle Drive",East Tamaki,AUCKLAND,2013
David Roscoe Dispensing Limited,Kentra Medication Centre Onslow,Capital and Coast DHB,,125 Moorefield Road,Johnsonville,WELLINGTON,6037
Davies Corner Pharmacy Limited,Unichem Davies Corner Pharmacy,Waikato DHB,,29 Hukanui Road,Fairfield,HAMILTON,3214
Davies Corner Pharmacy Limited,Unichem Ti Rakau Drive Pharmacy,Counties Manukau DHB,,316 Ti Rakau Drive,Burswood,AUCKLAND,2013
Dawson Road Pharmacy (2006) Limited,Dawson Road Pharmacy,Counties Manukau DHB,,124A Dawson Road,Clover Park,Auckland,2023
Devon St West Pharmacy Limited,Devon West Pharmacy,Taranaki DHB,,283 Devon St West,,NEW PLYMOUTH,4310
Devonport Family Pharmacy Limited,Helen Scott Pharmacy,Waitemata DHB,Ground Floor,"Shop 2, 63 Lake Road",Devonport,Auckland,0624
Dinsdale Community Pharmacy Limited,Unichem Dinsdale Pharmacy,Waikato DHB,,27C Whatawhata Road,Dinsdale,HAMILTON,3204
Discovery Pharmacy (2016) Limited,Unichem Miramar Pharmacy,Capital and Coast DHB,,58 Miramar Avenue,Miramar,Wellington,6022
Dispensary Plus Limited,Dispensary Plus Pharmacy,Waitemata DHB,,411 Great North Road,Henderson,AUCKLAND,0610
Dispensary Plus Limited,Unimart & Pharmacy @ Massey University,Waitemata DHB,,151 Dairy Flat Highway,Albany,AUCKLAND,0632
Dodds Pharmacy Limited,Merivale Medical Pharmacy,Canterbury DHB,,236 Papanui Road,Strowan,CHRISTCHURCH,8014
Dominion Road Pharmacy Limited,Dominion Road Pharmacy,Auckland DHB,,123D Dominion Road,Mt. Eden,AUCKLAND,1024
Don Street Pharmacy Limited,Don Street Pharmacy,Southern DHB,,103 Don Street,,INVERCARGILL,9810
Donna Kerr Pharmacy Limited,Life Pharmacy Donna Kerr,Southern DHB,,48 Windsor Street,Windsor,INVERCARGILL,9810
Downtown Pharmacy Mt Maunganui Limited,Downtown Pharmacy Mt Maunganui,Bay of Plenty DHB,,152 Maunganui Road,Mt Maunganui,TAURANGA,3116
Downtown Pharmacy Mt Maunganui Limited,The Crossing Pharmacy,Bay of Plenty DHB,"Shop RG-12, Tauranga Crossing",2 Taurikura Drive,Tauriko,Tauranga,3110
Drapac Pharmacy Limited,Drapac Pharmacy 360,Auckland DHB,,360C1 Dominion Road,Mount Eden,Auckland,1024
Duke St Pharmacy 2017 Limited,Duke St Pharmacy,Waikato DHB,,71 Duke Street,,Cambridge,3434
Dunedin City Pharmacy Limited,Dunedin City Pharmacy Limited,Southern DHB,,22 Princes Street,Dunedin Central,DUNEDIN,9010
EQP 2012 Limited,Eden Quarter Pharmacy,Auckland DHB,,296A Dominion Road,Mt Eden,AUCKLAND,1024
East Street Pharmacy 2013 Limited,East Street Pharmacy 2013 Limited,Canterbury DHB,,182 East Street,,Ashburton,7700
East Tamaki Pharmacy 2015 Limited,East Tamaki Pharmacy,Counties Manukau DHB,,277 East Tamaki Road,Otara,Auckland,2023
Eastbourne Pharmacy (1998) Limited,Eastbourne Pharmacy (1998) Limited,Hutt Valley DHB,,5 Rimu Street,Eastbourne,LOWER HUTT,5013
Eastmed Pharmacy 2015 Limited,Eastmed Pharmacy,Auckland DHB,,188 St Heliers Bay Road,St Heliers,AUCKLAND,1071
Eastridge Pharmacy 2018 Limited,Life Pharmacy Eastridge,Auckland DHB,"Shop 24, Eastridge Mall",215 Kepa Road,Mission Bay,Auckland,1071
Ell's Pharmacy (1991) Limited,Buller Pharmacy,West Coast DHB,,168 Palmerston Street,,Westport,7825
Ellerslie Pharmacy (2012) Limited,Unichem Ellerslie,Auckland DHB,,125 Main Highway,Ellerslie,AUCKLAND,1051
Elmwood Pharmacy 2008 Limited,Unichem Elmwood Pharmacy,Canterbury DHB,,3 Normans Road,Strowan,CHRISTCHURCH,8052
Elstree Pharmacy (2006) Limited,Elstree Pharmacy (2006) Limited,Auckland DHB,,145 West Tamaki Road,Glen Innes,Auckland,1072
Elwyn Bates Group Limited,Bates Pharmacy,Southern DHB,,Shop 40A Clyde Street,,BALCLUTHA,9230
Encounter Health Limited,McIntosh Pharmacy,Canterbury DHB,,135 St Albans Street,St Albans,Christchurch,8014
Epsom Pharmacy 2008 Limited,Epsom Pharmacy 2008 Limited,Auckland DHB,,641 Manukau Road,Royal Oak,Auckland,1023
Epsompharmacy Limited,Epsom Medical Care Pharmacy,Auckland DHB,Shop 1,272 Manukau Road,Epsom,AUCKLAND,1023
Everhealth Care Limited,Everhealth Pharmacy,Waikato DHB,,28 Ailsa Street,,Te Kuiti,3910
Ewart Douglas Limited,Ewart Douglas Pharmacy,Canterbury DHB,,403 Ilam Road,Bryndwr,Christchurch,8053
FB Pharmacy Limited,Dispensary Plus Pharmacy Birkenhead,Waitemata DHB,,4 Rawene Road,Birkenhead,AUCKLAND,0626
FTB Healthcare Limited,Healthcare Pharmacy Rosedale,Waitemata DHB,,Unit 17/94 Rosedale Road,Rosedale,Auckland,0632
Fairy Springs Medical Centre Pharmacy Limited,Unichem Fairy Springs Pharmacy,Lakes DHB,,10/100 Fairy Springs Road,Fairy Springs,Rotorua,3015
Families Pharmacy Limited,Pharmacy 72,Waitemata DHB,,72 East Coast Road,Milford,Auckland,0620
Family Care 7 Day Pharmacy Limited,Unichem Bairds Pharmacy,Counties Manukau DHB,,"Unit 2, 3 Watford Street",Otara,Auckland,2023
Family Health Care Pharmacy Limited,Unichem Family Healthcare Pharmacy,Auckland DHB,,"Unit 4, 627 Mt Wellington Highway",Mt Wellington,AUCKLAND,1062
Far North Pharmacy Limited,Far North Pharmacy,Northland DHB,,53 Commerce Street,,Kaitaia,0410
Faulkners Pharmacy Te Puke Limited,MyPharmacy Te Puke,Bay of Plenty DHB,,96 Jellicoe Street,,Te Puke,3119
Feilding Health Pharmacy 2018 Limited,Central Feilding Pharmacy,MidCentral DHB,,45 Kimbolton Road,,Feilding,4702
Feilding Health Pharmacy 2018 Limited,Feilding Health Pharmacy,MidCentral DHB,,7 Duke Street,,Feilding,4702
Feilding Health Pharmacy 2018 Limited,Feilding Health Smiths Pharmacy,MidCentral DHB,,1 Manchester Square,,Feilding,4740
Fenataff Limited,Hillsborough Pharmacy,Auckland DHB,,163A Hillsborough Road,Hillsborough,Auckland,1042
Fendalton Pharmacy Limited,Fendalton Mall Pharmacy,Canterbury DHB,"Shop 2, Fendalton Mall",19 - 23 Memorial Avenue,Ilam,Christchurch,8053
Ferrymead Pharmacy (2009) Limited,Pharmacy @ Ferrymead,Canterbury DHB,,"Units 1 & 2, Stage 2 Building, 1005 Ferry Road",Ferrymead,CHRISTCHURCH,8023
Fiordland Community Pharmacy Limited,Fiordland Community Pharmacy,Southern DHB,,70B Town Centre,Te Anau,SOUTHLAND,9600
Five Mile Pharmacy Queenstown Limited,Five Mile Pharmacy Queenstown,Southern DHB,Shop 7,32 Grant Road,Frankton,Queenstown,9371
Flagstaff Pharmacy Limited,Flagstaff Pharmacy Limited,Waikato DHB,,1158 River Road,Flagstaff,HAMILTON,3210
Flat Bush Medical Centre Pharmacy Limited,Flat Bush Medical Centre Pharmacy,Counties Manukau DHB,,201 Murphys Road,Flat Bush,Auckland,2019
Flaxmere Pharmacy (2000) Limited,Flaxmere Pharmacy (2000) Limited,Hawkes Bay DHB,"Shop 12,  Flaxmere Village",Swansea Road,Flaxmere,HASTINGS,4120
Flosun Alpha Limited,Bastins Pharmacy,Canterbury DHB,,254A Cranford Street,St Albans,Christchurch,8052
Flosun Alpha Limited,Mairehau Pharmacy,Canterbury DHB,,1/422 Innes Road,Mairehau,Christchurch,8052
Forbury Pharmacy (2004) Limited,Forbury Pharmacy (2004) Limited,Southern DHB,,615 Hillside Road,Caversham,Dunedin,9012
Forrest Hill Family Pharmacy Limited,Forrest Hill Family Pharmacy,Waitemata DHB,,Shop 7/1 Grenada Avenue,Forrest Hill,Auckland,0620
Franklin Pharmacy Limited,Franklin Medical Pharmacy,Counties Manukau DHB,,57 Seddon Street,,Pukekohe,2120
Franklins Pharmacy 2006 Limited,Life Pharmacy Franklin's,Waitemata DHB,,"Ground Floor, 48 Queen Street",,WARKWORTH,0910
Frankton Pharmacy (2016) Limited,Frankton Pharmacy,Waikato DHB,,161-163 Commerce Street,Frankton,Hamilton,3204
Fred Thomas Pharmacy (2015) Limited,Unichem Fred Thomas Pharmacy,Waitemata DHB,,2 Fred Thomas Drive,Takapuna,AUCKLAND,0622
Freemans Bay Pharmacy (2007) Limited,Freemans Bay Pharmacy,Auckland DHB,Shop 1,100 Wellington Street,Freemans Bay,AUCKLAND,1011
Fry's Pharmacy Limited,Fry's Pharmacy,Nelson Marlborough DHB,"Suite 3, Ground Floor",355 Lower Queen Street,,RICHMOND,7020
G & G Pharmacy Limited,Westend Pharmacy,Waikato DHB,,38 Tuhikaramea Road,Dinsdale,HAMILTON,3204
GDL Rx No1 Limited,Countdown Pharmacy Browns Bay,Waitemata DHB,,24 Anzac Road,Browns Bay,AUCKLAND,0630
GDL Rx No1 Limited,Countdown Pharmacy Mt Roskill,Auckland DHB,,112 Stoddard Road,Mt Roskill,AUCKLAND,1041
GDL Rx No1 Limited,Countdown Pharmacy Newtown,Capital and Coast DHB,,3 John Street,Mount Cook,WELLINGTON,6021
GDL Rx No1 Limited,Countdown Pharmacy Petone,Hutt Valley DHB,,45 Jackson Street,Petone,Lower Hutt,5012
GDL Rx No1 Limited,Countdown Pharmacy Rangitikei,MidCentral DHB,,249 Rangitikei Street,,Palmerston North,4410
GDL Rx No2 Limited,Countdown Pharmacy Cambridge,Waikato DHB,,97 Queen Street,,Cambridge,3434
GDL Rx No2 Limited,Countdown Pharmacy Eastgate,Canterbury DHB,,6 Buckleys Road,Linwood,CHRISTCHURCH,8062
GDL Rx No2 Limited,Countdown Pharmacy Ferrymead,Canterbury DHB,,999 Ferry Road,Ferrymead,CHRISTCHURCH,8023
GDL Rx No2 Limited,Countdown Pharmacy Invercargill,Southern DHB,,172 Tay Street,,INVERCARGILL,9810
GDL Rx No2 Limited,Countdown Pharmacy Lincoln Road,Waitemata DHB,,185-187 Universal Drive,Henderson,Auckland,0610
GDL Rx No3 Limited,Countdown Pharmacy Botany,Counties Manukau DHB,,475 Ti Rakau Drive,Golflands,Auckland,2013
GDL Rx No3 Limited,Countdown Pharmacy Church Corner,Canterbury DHB,,361 Riccarton Road,Upper Riccarton,CHRISTCHURCH,8041
GDL Rx No3 Limited,Countdown Pharmacy Claudelands,Waikato DHB,,160 Peachgrove Road,Hamilton East,HAMILTON,3216
GDL Rx No3 Limited,Countdown Pharmacy Mt Eden,Auckland DHB,,118 - 120 Valley Road,Mt Eden,Auckland,1024
GDL Rx No3 Limited,Countdown Pharmacy Ponsonby,Auckland DHB,,4 Williamson Avenue,Grey Lynn,Auckland,1021
GDL Rx No4 Limited,Countdown Pharmacy Ashburton,Canterbury DHB,,2 East Street,,Ashburton,7700
GDL Rx No4 Limited,Countdown Pharmacy Dunedin Central,Southern DHB,,309 Cumberland Street,Dunedin Central,Dunedin,9016
GDL Rx No4 Limited,Countdown Pharmacy Fraser Cove,Bay of Plenty DHB,,243 Fraser Street,Tauranga South,Tauranga,3112
GDL Rx No4 Limited,Countdown Pharmacy Greenlane,Auckland DHB,,326 Great South Road,Greenlane,Auckland,1051
GDL Rx No4 Limited,Countdown Pharmacy Rolleston,Canterbury DHB,,64 Rolleston Street,,Rolleston,7614
GDL Rx No5 Limited,Countdown Pharmacy Lynfield,Auckland DHB,,570 Hillsborough Road,Mount Roskill,Auckland,1041
GDL Rx No5 Limited,Countdown Pharmacy Northlands,Canterbury DHB,,71 Main Road North,Papanui,Christchurch,8052
GDL Rx No5 Limited,Countdown Pharmacy Pukekohe South,Counties Manukau DHB,,186-192 Manukau Road,,Pukekohe,2120
GDL Rx No5 Limited,Countdown Pharmacy Spotswood,Taranaki DHB,,6 Manadon Street,Spotswood,New Plymouth,4310
GDL Rx No5 Limited,Countdown Pharmacy Victoria Ave,Whanganui DHB,,433 Victoria Avenue,,Whanganui,4500
GDL Rx No6 Limited,Countdown Pharmacy Bayfair,Bay of Plenty DHB,,19 Girven Road,,Mount Maunganui,3116
GDL Rx No6 Limited,Countdown Pharmacy Lower Hutt,Hutt Valley DHB,,261 High Street,Hutt Central,Lower Hutt,5010
GDL Rx No6 Limited,Countdown Pharmacy Porirua,Capital and Coast DHB,,1 Parumoana Street,,Porirua,5022
GPR Investments Limited,The Pharmacy @ Addington,Canterbury DHB,,348 Lincoln Road,Addington,CHRISTCHURCH,8024
GPR Investments Limited,The Pharmacy @ Phillipstown,Canterbury DHB,,270 Ferry Road,Waltham,CHRISTCHURCH,8011
GPR Investments Limited,The Pharmacy @ St Georges,Canterbury DHB,Ground Floor of Canon Wilford Wing of St George's Hospital,249 Papanui Road,Strowan,Christchurch,8014
GTG Pharmacy Limited,Oakura Pharmacy,Taranaki DHB,,1132 South Road,,OAKURA,4314
Gary Logan Pharmacy Limited,Gary Logan Pharmacy Limited,Counties Manukau DHB,,121 King Street,Pukekohe,Auckland,2120
Gate Pa Village Pharmacy Limited,Gate Pa Village Pharmacy,Bay of Plenty DHB,,17A Courtney Road,Gate Pa,Tauranga,3112
Geraldine Pharmacy (2015) Limited,Geraldine Pharmacy,South Canterbury DHB,,22 & 24 Talbot Street,,Geraldine,7930
Gilmour's Havelock North Pharmacy Limited,Gilmour's Havelock North Pharmacy,Hawkes Bay DHB,,13 Middle Road,,Havelock North,4130
Gladstone Pharmacy Limited,Gladstone Pharmacy Limited,Southern DHB,Shop 1,1 Herbert Street,Gladstone,INVERCARGILL,9810
Gladstone Pharmacy Parnell Limited,Gladstone Pharmacy,Auckland DHB,,72 Gladstone Road,Parnell,Auckland,1052
Glendene Community Pharmacy Limited,Unichem Glendene Pharmacy,Waitemata DHB,Shop 1a,4343 Great North Road,Glendene,Auckland,0602
Glendowie Healthcare Pharmacy Limited,Unichem Glendowie Pharmacy,Auckland DHB,,95 Ashby Avenue,St Heliers,Auckland,1071
Glenfield 7 Day Pharmacy (2006) Limited,Glenfield 7 Day Pharmacy,Waitemata DHB,,5/407 Glenfield Road,Glenfield,Auckland,0629
Glenfield Family Pharmacy Limited,Unichem Dennis Hanna Pharmacy,Waitemata DHB,Shop 1,575 Glenfield Road,Glenfield,Auckland,0629
Glenfield Mall Pharmacy Limited,Life Pharmacy Glenfield,Waitemata DHB,"Shop 228, Westfield Mall Glenfield",75 Bentley Avenue,Glenfield,AUCKLAND,0629
Glengarry Pharmacy 2018 Limited,Glengarry Pharmacy,Southern DHB,,73 Glengarry Crescent,Glengarry,Invercargill,9810
Glengarry Pharmacy 2018 Limited,Windsor Pharmacy,Southern DHB,,12 Windsor Street,Windsor,Invercargill,9810
Glenns Pharmacy Limited,Glenns Pharmacy Limited,Hawkes Bay DHB,,245 Gloucester Street,Taradale,NAPIER,4112
Glenview Pharmacy Limited,Unichem Glenview Medical Pharmacy,Waikato DHB,,1 Urlich Avenue,Melville,Hamilton,3206
Glenview Pharmacy Limited,Unichem Glenview Pharmacy,Waikato DHB,,143 Ohaupo Road,Melville,Hamilton,3206
Godderidges Pharmacy Limited,Godderidges Pharmacy Limited,Taranaki DHB,,62 Weraroa Road,,Waverley,4510
Golden Sands Pharmacy Limited,Unichem Excelsa Pharmacy,Bay of Plenty DHB,Tenancy 2,5 Golden Sands Drive,Papamoa Beach,PAPAMOA,3118
Golf Road Pharmacy 2003 Limited,Unichem Golf Road Pharmacy,Waitemata DHB,,174 Golf Road,Titirangi,AUCKLAND,0604
Gonville Health Pharmacy Limited,Gonville Health Pharmacy Limited,Whanganui DHB,,44 Abbot Street,Gonville,Whanganui,4501
Good To Be Home Limited,Home Pharmacy,Auckland DHB,,"Unit 6, 280 Richmond Road",Grey Lynn,AUCKLAND,1021
Gopal's Pharmacy Limited,Gopal's Pharmacy Limited,Auckland DHB,,553 Great North Road,Grey Lynn,Auckland,1021
Goundar's Pharmacy Limited,St George Pharmacy,Counties Manukau DHB,,28 - 30 St George Street,Papatoetoe,AUCKLAND,2025
Graamans Health Development Limited,Waihemo Pharmacy,Southern DHB,,132 Ronaldsay Street,,PALMERSTON,9340
Graeme Smith Pharmacy Limited,Life Pharmacy Rangiora,Canterbury DHB,,172 - 176 High Street,,Rangiora,7400
Grafton Pharmacy Limited,Grafton Pharmacy,Auckland DHB,,29 Park Road,Grafton,Auckland,1023
Grand View Pharmacy Limited,West Hamilton Pharmacy,Waikato DHB,"Unit D, New Nawton Shopping Centre",Corner Grandview Road & Hyde Avenue,Nawton,HAMILTON,3200
Grant Irvine Pharmacy Limited,Grant Irvine Pharmacy Limited,MidCentral DHB,,168 Albert Street,Hokowhitu,PALMERSTON NORTH,4410
Green Bay Pharmacy (2005) Limited,Green Bay Pharmacy (2005) Limited,Waitemata DHB,,64B Godley Road,Green Bay,AUCKLAND,0604
Green Island Boutique Pharmacy Limited,Green Island Boutique Pharmacy,Southern DHB,,195B Main South Road,Green Island,Dunedin,9018
Greenhithe Pharmacy Limited,Unichem Greenhithe Pharmacy,Waitemata DHB,,"Shop 2, 8 Greenhithe Road",Greenhithe,AUCKLAND,0632
Greenlane Pharmacy (2004) Limited,Unichem Greenlane Pharmacy,Auckland DHB,,225 Great South Road,Greenlane,Auckland,1051
Greerton Pharmacy (2012) Limited,Unichem Greerton Pharmacy,Bay of Plenty DHB,,221 Chadwick Road,Greerton,Tauranga,3112
Grey Lynn Amcal Pharmacy Limited,Unichem Grey Lynn Pharmacy,Auckland DHB,,580 Great North Road,Grey Lynn,AUCKLAND,1021
Greytown Pharmacy Limited,Greytown Pharmacy Limited,Wairarapa DHB,North Shop,86 Main Street,,GREYTOWN,5712
Guthries Pharmacy Limited,Life Pharmacy Pakuranga,Counties Manukau DHB,"Shop 128, Pakuranga Plaza,",Corner Pakuranga Road & Ti Rakau Drive,Pakuranga,Auckland,2010
Guys Pharmacy (2001) Limited,Counties Care Pharmacy,Counties Manukau DHB,Shop 2,6-18 O'Shannessey Street,,Papakura,2110
Guys Pharmacy (2001) Limited,Life Pharmacy Papakura,Counties Manukau DHB,Roselands Shopping Centre,1/94 and 96-98 Great South Road,,Papakura,2110
Halswell Pharmacy Limited,Halswell Pharmacy,Canterbury DHB,,"Unit 1, 29 Ensign Street",Halswell,Christchurch,8025
Hamilton Central Pharmacy Limited,Hamilton Central Pharmacy,Waikato DHB,Shop 1,131 Pembroke Street,Hamilton Lake,Hamilton,3204
Hamilton East Pharmacy Limited,Hamilton East Pharmacy,Waikato DHB,,14 Beale Street,Hamilton East,HAMILTON,3216
Hamilton Pharmacy 2011 Limited,Hamilton Pharmacy,Waikato DHB,,2/750 Victoria Street,Hamilton Central,HAMILTON,3204
Hamish Barham Pharmacy Limited,Hamish Barham Pharmacy Limited,MidCentral DHB,,80 Main Street,,Otaki,5512
Hanafins Pharmacy Limited,Hanafins Pharmacy,Canterbury DHB,,"Shop 8, 62 Riccarton Road",Riccarton,CHRISTCHURCH,8011
Happyout Limited,University Pharmacy Canterbury,Canterbury DHB,"Unit 6, James Hight Undercroft","University of Canterbury, University Drive",Ilam,Christchurch,8041
Harbour City Pharmacy (2011) Limited,Unichem Cuba Mall Pharmacy,Capital and Coast DHB,,120 Cuba Street,Te Aro,WELLINGTON,6011
Hardings Chemists(2003) Limited,Cashmere Pharmacy,Canterbury DHB,,91 Centaurus Road,Huntsbury,Christchurch,8022
Hardings Chemists(2003) Limited,Hardings Chemist and Post,Canterbury DHB,,135 Colombo Street,Sydenham,Christchurch,8023
Hardings Chemists(2003) Limited,Hardings Pharmacy,Canterbury DHB,,167 Colombo Street,Sydenham,Christchurch,8023
Hardy St Pharmacy Limited,Hardy Street Pharmacy,Nelson Marlborough DHB,,131 Hardy Street,,NELSON,7010
Harold S Moyle (1994) Limited,Moyle's Pharmacy,South Canterbury DHB,,6 Dee Street,,TIMARU,7910
Harris Road Pharmacy 2018 Limited,Harris Road Pharmacy,Auckland DHB,,Shop 7/2 Harris Road,Mount Wellington,Auckland,1051
Hasan Abdel Rahman,Brockville Pharmacy,Southern DHB,,283 Brockville Road,Brockville,DUNEDIN,9011
Hasan Pharmacy Limited,Fairfield Pharmacy,Waikato DHB,,1007 Heaphy Terrace,Fairfield,Hamilton,3214
Hastings District United Friendly Societies Association,Hastings UFS Dispensary,Hawkes Bay DHB,,308 Heretaunga Street East,,HASTINGS,4122
Hastings Pharmacy (2013) Limited,Life Pharmacy Hastings,Hawkes Bay DHB,Ground Floor,205 Heretaunga Street West,Hastings,HAWKES BAY,4122
Hastings Pharmacy Limited,Unichem Hastings Pharmacy,Hawkes Bay DHB,Shop 2,600 Heretaunga Street West,St Leonards,HASTINGS,4120
Hastings Plaza Pharmacy Limited,Bay Plaza Pharmacy,Hawkes Bay DHB,,"Shop 14, Hastings Plaza",221 Russell Street North,Hastings,4122
Hauraki Corner Pharmacy Limited,Hauraki Corner Pharmacy Limited,Waitemata DHB,,349 Lake Road,Hauraki,AUCKLAND,0622
Hawke's Bay District Health Board,Hawke's Bay Hospital Pharmacy,Hawkes Bay DHB,,Omahu Road,,Hastings,4120
Hawkes Bay Pharmacies Limited,Life Pharmacy Coastlands,Capital and Coast DHB,"Shop 6, Coastlands Shoppingtown",Main Road,,PARAPARAUMU,5032
Hawkes Bay Pharmacies Limited,Unichem Stortford Lodge Pharmacy,Hawkes Bay DHB,,1107 Heretaunga Street West,Saint Leonards,HASTINGS,4120
Hawkes Bay United Friendly Societies Dispensary,Unichem UFS Pharmacy (HB),Hawkes Bay DHB,,265 Emerson Street,Napier South,Napier,4110
Health & Beauty Limited,Goldfields Pharmacy and Photo Centre,Waikato DHB,"Shop 48, 17 and 18 Goldfields Shopping Centre",100 Mary Street,,Thames,3500
Health New Lynn 7 Day Pharmacy Limited,Health New Lynn 7 Day Pharmacy,Waitemata DHB,Tenancy 01,1 McCrae Way,New Lynn,Auckland,0600
Health Plus Pharmacy Limited,Health Plus Pharmacy,Counties Manukau DHB,,578 Great South Road,Manukau,AUCKLAND,2025
Health Star Pharmacy Limited,Health Star Pharmacy,Auckland DHB,,136 Queens Road,Panmure,AUCKLAND,1072
Healthtrack Pharmacy Limited,Bruce Amies Pharmacy,Auckland DHB,,4 Avondale Road,Avondale,Auckland,1026
Healthworks 2016 Limited,HealthWorks Pharmacy,Canterbury DHB,,108 Memorial Avenue,Burnside,Christchurch,8053
Hei Hei Pharmacy Limited,Hei Hei Pharmacy Limited,Canterbury DHB,,34 Wycola Avenue,Hei Hei,CHRISTCHURCH,8042
Helensville Pharmacy (2008) Limited,Unichem Helensville Pharmacy,Waitemata DHB,,50 Commercial Road,,Helensville,0800
Henderson Discount Pharmacy Limited,Henderson Discount Pharmacy,Waitemata DHB,,383 Great North Road,Henderson,Auckland,0612
Henderson Medical Centre Pharmacy Limited,Henderson Medical Centre Pharmacy Limited,Waitemata DHB,,"Unit E, 2-4 Montel Avenue",Henderson,AUCKLAND,0612
Henderson Pharmacy Limited,Life Pharmacy Henderson,Auckland DHB,"Shop 107, WestCity Waitakere", 7 Catherine Street,Henderson,Auckland,0612
Henry W Jasionowicz Limited,Newlands Pharmacy,Capital and Coast DHB,Shop 33,33 McMillan Court,Newlands,WELLINGTON,6037
Herne Bay Pharmacy Limited,Herne Bay Pharmacy,Auckland DHB,,210 Jervois Road,Herne Bay,Auckland,1011
Hickey's Pharmacy Limited,Unichem Hickey's Pharmacy,Waitemata DHB,,16A Moana Avenue,,Orewa,0931
Highfield Mall Pharmacy Limited,Unichem Highfield Mall,South Canterbury DHB,Shop 5 and 6,"Highfield Mall, 145 Wai-iti Road",,TIMARU,7910
Highland Pharmacy Central Limited,Highland Pharmacy Central,Southern DHB,,107 Scotland Street,,ROXBURGH,9500
Highpoint Pharmacy Limited,Unichem Birkenhead Pharmacy,Waitemata DHB,"Shop 28, Highbury Shopping Centre",Corner Highbury Bypass & Birkenhead Avenue,Birkenhead,AUCKLAND,0626
Hillcrest Central Pharmacy Limited,Hillcrest Central Pharmacy,Waitemata DHB,,66 Moore Street,Hillcrest,Auckland,0627
Hillcrest Family Pharmacy Limited,Unichem Sunnybrae Pharmacy,Waitemata DHB,,45 Sunnybrae Road,Glenfield,Auckland,0627
Hillcrest Pharmacy (2014) Limited,Hillcrest Healthcare Pharmacy,Waikato DHB,,153 Cambridge Road,Hillcrest,HAMILTON,3216
Hillmorton Pharmacy 2009 Limited,Hillmorton Pharmacy 2009 Limited,Canterbury DHB,,9 Halswell Road,Hillmorton,CHRISTCHURCH,8025
Hobson Street Pharmacy Limited,Hobson Street Pharmacy,Auckland DHB,,23 Union Street,Auckland Central,Auckland,1010
Hobsonville Pharmacy Limited,Unichem Hobsonville Pharmacy,Waitemata DHB,"Shop 7, Level 1 of Retail Block 2",124 Hobsonville Road,Hobsonville,Auckland,0618
Hobsonville Point Pharmacy Limited,Hobsonville Point Pharmacy Limited,Waitemata DHB,,"Shop 3B, 160 Hobsonville Point Road",Hobsonville,AUCKLAND,0616
Hokowhitu Pharmacy Limited,Hokowhitu Pharmacy Limited,MidCentral DHB,,360 Albert Street,Hokowhitu,PALMERSTON NORTH,4410
Hook Holdings Limited,Waimate Pharmacy,South Canterbury DHB,,84 Queen Street,,Waimate,7924
Hoon Hay Pharmacy Limited,Hoon Hay Pharmacy Limited,Canterbury DHB,,120 Sparks Road,Hoon Hay,CHRISTCHURCH,8025
Hornby Pharmacy Limited,Life Pharmacy Hornby,Canterbury DHB,"Shop 2, The Hub Hornby",418 Main South Road,Hornby,CHRISTCHURCH,8042
Hospital Health Pharmacy Limited,Hospital Health Pharmacy Limited,MidCentral DHB,,50 Ruahine Street,Roslyn,Palmerston North,4414
Howick Family Pharmacy Limited,John Savory Pharmacy,Counties Manukau DHB,,186A Wellington Street,Howick,AUCKLAND,2014
Howick Family Pharmacy Limited,Unichem John Savory Pharmacy,Counties Manukau DHB,,78 Vincent Street,Howick,AUCKLAND,2014
Howick House Dispensary 2001 Limited,Howick House Dispensary 2001 Limited,Counties Manukau DHB,,43 Moore Street,Howick,Auckland,2014
Huapai Pharmacy (2017) Limited,Unichem Huapai Pharmacy,Waitemata DHB,,321-323 Main Road,Huapai,Kumeu,0810
Hunt's Pharmacy 2010 Limited,Hunts Pharmacy,Counties Manukau DHB,"Shop 3B, Countdown Shopping Centre",359 Massey Road,Mangere East,Auckland,2024
Hunters Plaza Pharmacy Limited,Unichem Hunters Plaza Pharmacy,Counties Manukau DHB,"Shop 11, Hunters Plaza",217 Great South Road,Papatoetoe,AUCKLAND,2025
Huntly Pharmacy Limited,Huntly Pharmacy Limited,Waikato DHB,,123 Main Street,,Huntly,3700
Huntly West Pharmacy Limited,Huntly West Pharmacy,Waikato DHB,,4 Bridge Street,,Huntly West,3700
Hurst & Taylor Limited,Hurst & Taylor Unichem Pharmacy,Nelson Marlborough DHB,,512 Main Road Stoke,Stoke,NELSON,7041
Hurstmere Pharmacy (2008) Limited,Unichem Wynyard Pharmacy,Auckland DHB,"Ground Floor, Rental Unit 4b, Datacom Building",58 Gaunt Street,Auckland Central,Auckland,1010
Hutt City Pharmacy Limited,Hutt City Pharmacy,Hutt Valley DHB,,5 Raroa Road,Hutt Central,Lower Hutt,5010
Hutt South Pharmacies (Maungaraki) Limited,Maungaraki Pharmacy,Hutt Valley DHB,,169 Dowse Drive,Maungaraki,Lower Hutt,5010
Hutt South Pharmacies Limited,Waterloo Pharmacy,Hutt Valley DHB,,"Shop 1, 1 Trafalgar Square",Waterloo,Lower Hutt,5011
Hutt Valley Associated Chemists Limited,Lower Hutt Urgent Pharmacy,Hutt Valley DHB,,729 High Street,Boulcott,LOWER HUTT,5010
Hutt Valley District Health Board,Hutt Hospital Pharmacy,Hutt Valley DHB,"Pharmacy Department, Hutt Hospital",High Street,Boulcott,LOWER HUTT,5010
Hutt Valley Pharmacies 2014 Limited,Unichem High Street Pharmacy,Hutt Valley DHB,,"Unit 7, 71 High Street",Hutt Central,Lower Hutt,5010
Hutt Valley Pharmacies 2014 Limited,Unichem Upper Hutt Pharmacy,Hutt Valley DHB,,723 Ferguson Drive,Elderslea,UPPER HUTT,5018
Ihakara Pharmacy Limited,Ihakara Pharmacy,Capital and Coast DHB,,40 Ihakara Street,,PARAPARAUMU,5032
Ilam Pharmacy Limited,Ilam Pharmacy,Canterbury DHB,,209B Waimairi Road,Ilam,Christchurch,8041
Im Good Limited,Lynnmall Pharmacy,Waitemata DHB,"Shop E204, Lynnmall Shopping Centre",3058 Great North Road,New Lynn,Auckland,0600
Invercargill United Friendly Societies Dispensary,Unichem UFS Pharmacy,Southern DHB,,76 Tay Street,,Invercargill,9810
Island View Limited,Unichem Health Te Aroha Pharmacy,Waikato DHB,,28 Church Street,,Te Aroha,3320
Island View Limited,Unichem Paeroa Medical Centre Pharmacy,Waikato DHB,,15 Princes Street,,PAEROA,3600
Island View Limited,Unichem Paeroa Pharmacy,Waikato DHB,,122 Normanby Road,,PAEROA,3600
Island View Limited,Unichem Te Aroha Pharmacy,Waikato DHB,,189-191 Whitaker Street,,Te Aroha,3320
J & J Pharmacy Limited,Vercoe Road Pharmacy,Waikato DHB,,35 Vercoe Road,Beerescourt,HAMILTON,3200
J Barron Limited,Barron's Pharmacy,Waikato DHB,,66 Seddon Street,,Waihi,3610
J C Chemist Limited,Craig's Chemist,Capital and Coast DHB,,67 Miramar Avenue,Miramar,Wellington,6022
J V Pharmacy Limited,Eden Epsom Pharmacy,Auckland DHB,,485 Manukau Road,Epsom,Auckland,1023
J-Mall Pharmacy Limited,Life Pharmacy Johnsonville,Capital and Coast DHB,"Shop 40, Johnsonville Shopping Centre",16 Broderick Road,Johnsonville,Wellington,6037
J.A. & S.A. Allan Pharmacy Limited,Katikati Health Centre Pharmacy,Bay of Plenty DHB,,4 Clive Road,,Katikati,3129
J.A. & S.A. Allan Pharmacy Limited,Unichem Katikati Pharmacy,Bay of Plenty DHB,,26 Main Road,,KATIKATI,3129
J.A. Alexander Limited,Alexander Pharmacy,Capital and Coast DHB,Magix House,191B Willis Street,Te Aro,Wellington,6011
J.K. Pharmacy Limited,Levin Mall Pharmacy,MidCentral DHB,"Shop 1, Levin Mall Shopping Centre",191 Oxford Street,,Levin,5510
JAGCAL Limited,Lakes Pharmacy,Bay of Plenty DHB,,8/1 Caslani Lane,Pyes Pa,Tauranga,3112
JAGCAL Limited,Pyes Pa Pharmacy,Bay of Plenty DHB,,"Shop 7, 83 Pyes Pa Road",Pyes Pa,TAURANGA,3112
JBG Pharmacy Limited,Avalon Pharmacy,Waikato DHB,,6 Avalon Drive,Nawton,HAMILTON,3200
JJGSY Limited,McNaughton's Pharmacy,Southern DHB,,351A King Edward Street,South Dunedin,Dunedin,9012
JSJ Pharmacy Limited,Unichem Te Kuiti Pharmacy,Waikato DHB,Shops 1 & 2,105 Rora Street,,TE KUITI,3910
Jaks Pharmacy Limited,Jaks Pharmacy,Counties Manukau DHB,The Warehouse,35 Cavendish Drive,Manukau,AUCKLAND,2104
Jalen BB Limited,Pharmacy @ Bell Block,Taranaki DHB,,188 Parklands Avenue,Bell Block,NEW PLYMOUTH,4312
Jeffrey Lucas Chemist Limited,Unichem Westown Pharmacy,Taranaki DHB,,55 Tukapa Street,Westown,NEW PLYMOUTH,4310
John Adams Pharmacy Limited,Hall Avenue Pharmacy,Auckland DHB,Shop 2,23 Hall Avenue,Otahuhu,Auckland,1062
John Hogg Pharmacy 2015 Limited,John Hogg Pharmacy 2015 Limited,Counties Manukau DHB,"Shop 19A, Mangere Town Centre",93 Bader Drive,Mangere,Auckland,2022
John Poswillo Pharmacy Limited,John Poswillo Pharmacy,Nelson Marlborough DHB,,30-32 Scott Street,,BLENHEIM,7201
John Poswillo Pharmacy Limited,Omaka Landing Pharmacy,Nelson Marlborough DHB,,4 Richardson Avenue,Burleigh,Blenheim,7272
John's Photo Pharmacy Limited,John's Photo Pharmacy,Bay of Plenty DHB,,292 Cameron Road,,TAURANGA,3110
John's at Palm Beach Plaza Pharmacy Limited,My Pharmacy - Papamoa Plaza,Bay of Plenty DHB,"Shop 9, Papamoa Plaza",7 Gravatt Road,Papamoa Beach,Papamoa,3118
Johnny & Jasmine Ly Limited,Sommerville Pharmacy,Counties Manukau DHB,Unit E2,119 Meadowland Drive,Howick,Auckland,2014
Johnsonville Chemists Limited,Unichem Johnsonville,Capital and Coast DHB,,31 Johnsonville Road,Johnsonville,Wellington,6037
Johnsonville Medical Centre Pharmacy Limited,Johnsonville Medical Centre Pharmacy,Capital and Coast DHB,,"Ground Floor, 2 Trafalgar Street",Johnsonville,Wellington,6037
Julies Pharmacy Limited,Julies Pharmacy Limited,Auckland DHB,Ground Floor,1224-1226 Dominion Road,Mt Roskill,AUCKLAND,1041
Juliet Ave Pharmacy Limited,Juliet Ave Pharmacy,Counties Manukau DHB,,5/59 Juliet Avenue,Howick,Auckland,2014
K & CB Govind Limited,Cannons Creek Pharmacy,Capital and Coast DHB,,14 Warspite Avenue,Cannons Creek,PORIRUA,5024
K J Dean Limited,Campus Pharmacy Waikato,Waikato DHB,University of Waikato,"Gate 1, Knighton Road",Hillcrest,Hamilton,3216
Kaeo Chemist Limited,Kaeo Chemist Limited,Northland DHB,,26 Leigh Street,,KAEO,0478
Kaiapoi Crossing Pharmacy Limited,Kaiapoi Crossing Pharmacy,Canterbury DHB,Unit 7,77 Hilton Street,,Kaiapoi,7630
Kaiapoi Pharmacy Limited,Kaiapoi North Pharmacy,Canterbury DHB,,40 Charles Street,,Kaiapoi,7630
Kaikoura Pharmacy (1998) Limited,Kaikoura Pharmacy (1998) Limited,Canterbury DHB,,26 West End,,Kaikoura,7300
Kaitaia Pharmacy 2017 Limited,Shackleton's Pharmacy Unichem,Northland DHB,,91 Commerce Street,,Kaitaia,0410
Kaiti Mall Pharmacy (2015) Limited,Kaiti Mall Pharmacy (2015) Limited,Tairawhiti DHB,Kaiti Mall,498 Wainui Road,Kaiti,Gisborne,4010
Kamo Pharmacies Limited,Unichem Kamo Dispensary,Northland DHB,,6C Three Mile Bush Road,Kamo,Whangarei,0112
Kamo Pharmacies Limited,Unichem Kamo Pharmacy,Northland DHB,,521A Kamo Road,Kamo,WHANGAREI,0112
Karaka Pharmacy Limited,Unichem Karaka Pharmacy,Counties Manukau DHB,Shop 7a,71 Hingaia Road,Karaka,Papakura,2580
Karen Rich Pharmacy Limited,Crofton Downs Pharmacy,Capital and Coast DHB,Churchill Drive Shopping Centre,124 Churchill Drive,Crofton Downs,Wellington,6035
Karori Mall Pharmacy Limited,Unichem Karori Mall Pharmacy,Capital and Coast DHB,Karori Mall,"Shop 6, 250 Karori Road",Karori,WELLINGTON,6012
Karori Mall Pharmacy Limited,Unichem Marsden Village Pharmacy,Capital and Coast DHB,,159 Karori Road,Karori,WELLINGTON,6012
Karuna78 Limited,Unichem University Pharmacy,Capital and Coast DHB,,21 Kelburn Parade,Kelburn,Wellington,6012
Kathy The Chemist Limited,Unichem Hillpark Pharmacy,Counties Manukau DHB,"Shop 4, Hillpark Commercial Centre",77 Grande Vue Road,Manurewa,AUCKLAND,2102
Kawakawa Pharmacy Limited,Kawakawa Pharmacy Limited,Northland DHB,,21-23 Gillies Street,Kawakawa,NORTHLAND,0243
Kelburn Pharmacy (2002) Limited,Kelburn Pharmacy,Capital and Coast DHB,,1 Upland Road,Kelburn,Wellington,6012
Kelston Medical Pharmacy 2018 Limited,Unichem Kelston Medical Pharmacy,Waitemata DHB,,8A Archibald Road,Kelston,Auckland,0602
Kelston Pharmacy Limited,Kelston Pharmacy Limited,Waitemata DHB,"Shop 17, Kelston Shopping Centre",corner of Great North Road & West Coast Road,Kelston,Auckland,0602
Kelvin's Pharmacy Limited,Hataitai Pharmacy,Capital and Coast DHB,,4 Moxham Avenue,Hataitai,Wellington,6021
Kendal Pharmacy (2015) Limited,Kendal Pharmacy,Canterbury DHB,,64 Kendal Avenue,Burnside,CHRISTCHURCH,8053
Kenepuru Pharmacy Limited,Kenepuru Pharmacy,Capital and Coast DHB,Kenepuru Community Hospital,16 Hospital Drive,Kenepuru,PORIRUA,5022
Kennedy Pharmacy Limited,David Moore Pharmacy,Tairawhiti DHB,,75 Customhouse Street,,Gisborne,4010
Kensington Pharmacy Limited,Kensington Pharmacy,Northland DHB,Shop 1,4 Kensington Avenue,Kensington,Whangarei,0112
Khandallah Pharmacy (1971) Limited,Village Pharmacy Khandallah,Capital and Coast DHB,,23 Ganges Road,Khandallah,WELLINGTON,6035
Kilbirnie Pharmacy Limited,Unichem Kilbirnie Pharmacy,Capital and Coast DHB,,37 Bay Road,Kilbirnie,WELLINGTON,6022
King Pharmacy Group Limited,Linwood Dispensary,Canterbury DHB,"Level 1, Eastgate Shopping Mall",20 Buckleys Road,Linwood,Christchurch,8062
King Pharmacy Group Limited,Unichem Bush Inn Pharmacy,Canterbury DHB,"Shop 8, Bush Inn Shopping Centre",364 Riccarton Road,Upper Riccarton,CHRISTCHURCH,8041
King Pharmacy Group Limited,Unichem Eastgate Pharmacy,Canterbury DHB,"Shops 309-310, Eastgate Shopping Centre",6 Buckleys Road,Linwood,CHRISTCHURCH,8062
Kingsland Limited,Kingsland Pharmacy,Auckland DHB,,491 New North Road,Kingsland,AUCKLAND,1021
Kirkbride Pharmacy Limited,Airport Oaks Pharmacy,Counties Manukau DHB,,149C Kirkbride Road,Mangere,Auckland,2022
Knox Pharmacy 2010 Limited,Unichem Knox Pharmacy,Southern DHB,,402 George Street,North Dunedin,Dunedin,9016
Kohi Point Pharmacies Limited,Life Pharmacy Whakatane,Bay of Plenty DHB,,183 The Strand,,Whakatane,3120
Kokoru Pharmacy Group Limited,Greendale Pharmacy,Hawkes Bay DHB,,135 Gloucester Street,Taradale,Napier,4112
Kokoru Pharmacy Group Limited,Maraenui Pharmacy,Hawkes Bay DHB,,3 Longfellow Avenue,Maraenui,Napier,4110
Kokoru Pharmacy Group Limited,Napier Pharmacy,Hawkes Bay DHB,,70 Wellesley Road,Napier South,Napier,4110
Kolmar Community Pharmacy Limited,Unichem Kolmar Pharmacy,Counties Manukau DHB,,1/133 Kolmar Road,Papatoetoe,AUCKLAND,2025
Kope Pharmacy (2002) Limited,Kope Pharmacy (2002) Limited,Bay of Plenty DHB,,78 King Street,,WHAKATANE,3120
Kwok Health Care Limited,Unichem Aviemore Pharmacy,Counties Manukau DHB,,"Shop 1A, 5 Aviemore Drive",Highland Park,Auckland,2010
LFH Pharmacy Limited,Graeme Angus Pharmacy,Counties Manukau DHB,,91 St George Street,Papatoetoe,Auckland,2025
LHS International Limited,The Auckland City Pharmacy,Auckland DHB,,419 Queen Street,Auckland Central,Auckland,1010
LHS International Limited,The Puhinui Pharmacy,Counties Manukau DHB,,"Unit B, 258 Puhinui Road",Papatoetoe,Auckland,2025
La Hood's The Chemist 2018 Limited,La Hood's The Chemist,Southern DHB,,43 Main Street,,Gore,9710
Lagans Pharmacy 2013 Limited,Lagan's Pharmacy,Hutt Valley DHB,,10 Main Street,,UPPER HUTT,5018
Lake Dunstan Pharmacy Limited,Lake Dunstan Pharmacy,Southern DHB,,2A The Mall,,Cromwell,9310
Lake Taupo Pharmacy (2008) Limited,Life Pharmacy Taupo,Lakes DHB,,35-37 Heuheu Street,,TAUPO,3330
Lakes District Health Board,Rotorua Hospital Pharmacy,Lakes DHB,,Corner of Arawa and Ranolf Streets,Pukeroa Hill,ROTORUA,3046
Lakes District Health Board,Taupo Hospital Pharmacy,Lakes DHB,,Kotare Street,Hilltop,TAUPO,3351
Lambs Pharmacy & Natural Therapies Centre (1994) Limited,Lambs Pharmacy & Natural Therapies Centre,Auckland DHB,,173 Karangahape Road,Newton,AUCKLAND,1010
Lambton Square Limited,Lambton Square Pharmacy,Capital and Coast DHB,Shop 104,Lambton Square Mall,180 Lambton Quay,WELLINGTON,6011
Lamiv Limited,Barry Roberts Pharmacy,Waikato DHB,,72 Main Street,,Huntly,3700
Langford Pharmacy Whangamata Limited,Unichem Whangamata Pharmacy,Waikato DHB,,503A Port Road,,Whangamata,3620
Larson's Pharmacy Limited,Larson's Pharmacy Limited,Southern DHB,,216 Main South Road,Green Island,Dunedin,9018
Leabank Pharmacy (1998) Limited,Unichem Leabank Pharmacy,Counties Manukau DHB,,102-104 Weymouth Road,Manurewa,Auckland,2102
Leamington Pharmacy (1981) Limited,Unichem Leamington Pharmacy,Waikato DHB,,127 Shakespeare Street,Leamington,Cambridge,3432
Lee & Hart Pharmacy Limited,Hart's Pharmacy,Waitemata DHB,,27-35 Queen Street,,WARKWORTH,0910
Leeston Pharmacy 2008 Limited,Leeston Pharmacy,Canterbury DHB,,76 High Street,,LEESTON,7632
Lemmon Tree Healthcare Limited,Eden Care Pharmacy,Auckland DHB,,811 Mount Eden Road,Mount Eden,Auckland,1024
Len Hooper Pharmacy Limited,Len Hooper Pharmacy Limited,Hutt Valley DHB,,104 Oxford Terrace,Epuni,LOWER HUTT,5011
Life Pharmacy Albany Limited,Life Pharmacy Albany,Waitemata DHB,"Shop 211, Westfield Albany",219 Don McKinnon Drive,Albany,AUCKLAND,0632
Life Pharmacy Centre Place (2009) Limited,Life Pharmacy Centre Place,Waikato DHB,"Shop 23, Centre Place Shopping Centre",501 Victoria Street,Hamilton Central,HAMILTON,3204
Life Pharmacy Northwest Limited,Life Pharmacy Northwest,Waitemata DHB,,"Shop 7, 1 - 7 Fred Taylor Drive",Westgate,AUCKLAND,0814
Life Pharmacy Queenstown Limited,Life Pharmacy Wilkinsons,Southern DHB,,The Corner Rees Street & The Mall,,Queenstown,9348
Life Pharmacy Remuera Limited,Life Pharmacy Remuera,Auckland DHB,,320 Remuera Road,Remuera,Auckland,1050
Life Pharmacy Sylvia Park Limited,Life Pharmacy Sylvia Park,Auckland DHB,,"Sylvia Park, 286 Mt Wellington Highway",Mt Wellington,AUCKLAND,1060
Life Pharmacy Tauranga Crossing Limited,Life Pharmacy The Crossing,Bay of Plenty DHB,"Shop RS152, Tauranga Crossing Shopping Centre",2 Taurikura Drive,Tauriko,Tauranga,3110
Life Pharmacy Wall Street Dunedin Limited,Life Pharmacy Dunedin,Southern DHB,"Shop G1B, Wall Street Retail Complex",211 George Street,,DUNEDIN,9016
Lincoln Mall Pharmacy Limited,Lincoln Mall Pharmacy Limited,Waitemata DHB,,Unit 1A3/192  Universal Drive,Henderson,Auckland,0610
Lincoln Pharmacy (2012) Limited,Lincoln Pharmacy,Canterbury DHB,,8 Gerald Street,,LINCOLN,7608
Lincoln Road Pharmacy 2018 Limited,Unichem Lincoln Road Pharmacy,Canterbury DHB,"Unit D, Annex Building",30 Lincoln Road,Hillmorton,Christchurch,8024
Linda Jones Pharmacy Limited,Meadowbank Corner Chemist,Auckland DHB,,10 St Johns Road,Meadowbank,Auckland,1072
Link Pharmacy Limited,Link Pharmacy,Waitemata DHB,Unit 4,140-146 Sunnynook Road,Sunnynook,Auckland,0620
Linwood Pharmacy Group Limited,Community Pharmacy Linwood,Canterbury DHB,Shop 1,201 Linwood Avenue,Linwood,CHRISTCHURCH,8011
Little Sprout Pharmacy Limited,Little Sprout Pharmacy,Auckland DHB,,2D Esplanade Road,Mt Eden,AUCKLAND,1024
Lockington's Pharmacy Limited,Lockington's Medical Centre Pharmacy,Auckland DHB,Tenancy 2,223 Stoddard Road,Mt Roskill,Auckland,1041
Lockington's Pharmacy Limited,Lockington's Pharmacy Limited,Auckland DHB,,198-202 Stoddard Road,Mount Roskill,Auckland,1041
Longhurst Pharmacy Limited,Longhurst Pharmacy,Canterbury DHB,,53 Caulfield Avenue,Halswell,CHRISTCHURCH,8025
Lower Hutt Pharmacy Limited,Ian Schofer Unichem,Hutt Valley DHB,,3 Margaret Street,Hutt Central,LOWER HUTT,5010
Lunn Ave Community Pharmacy Limited,Unichem Lunn Ave Pharmacy,Auckland DHB,,2/110 Lunn Avenue,Remuera,AUCKLAND,1072
Lycium Limited,Wisdom Pharmacy,Auckland DHB,,717 Richardson Road,Hillsborough,Auckland,1042
M & P Bollard Limited,Bollards Pharmacy,MidCentral DHB,,123 Main Street,,PAHIATUA,4910
MH Pharmacy Limited,New Windsor Pharmacy,Auckland DHB,,1/271 - 1/275 New Windsor Road,New Windsor,Auckland,0600
MHP Limited,Manukau Medical Pharmacy,Counties Manukau DHB,,18 Manukau Station Road,Manukau,AUCKLAND,2104
MS Healthcare Limited,Torbay Pharmacy,Waitemata DHB,,1040 Beach Road,Torbay,AUCKLAND,0630
MSN Health Limited,Southmall Pharmacy,Counties Manukau DHB,Unit F2,185 Great South Road,Manurewa,AUCKLAND,2102
Ma Belle Helene Limited,Mazengarb Pharmacy,Capital and Coast DHB,,240 Mazengarb Road,,PARAPARAUMU,6450
Mackays Pharmacy (2007) Limited,Mackays Unichem Pharmacy,Taranaki DHB,,289 Broadway,,Stratford,4332
Mackenzie Pharmacy (2014) Limited,Mackenzie Pharmacy,South Canterbury DHB,,6-7 Market Place,,Twizel,7901
Mahora Pharmacy Limited,Mahora Pharmacy Limited,Hawkes Bay DHB,,907 Tomoana Road,Mahora,HASTINGS,4120
Main Street Pharmacy Limited,Great Lake Pharmacy,Lakes DHB,,109 Tongariro Street,,TAUPO,3330
Main Street Pharmacy Limited,Taupo Health Centre Pharmacy,Lakes DHB,,113 Heuheu Street,,Taupo,3330
Main Street Pharmacy Limited,Unichem Mainstreet Pharmacy,Lakes DHB,,51 Tongariro Street,,TAUPO,3330
Mainstreet Pharmacy Howick Limited,Mainstreet Pharmacy Howick,Counties Manukau DHB,,45 - 47 Picton Street,Howick,AUCKLAND,2014
Mairangi Bay Pharmacy Limited,Unichem Mairangi Bay Pharmacy,Waitemata DHB,,433 Beach Road,Mairangi Bay,AUCKLAND,0630
Mairangi Bay Pharmacy Limited,Unichem Mairangi Medical Pharmacy,Waitemata DHB,,408 Beach Road,Mairangi Bay,Auckland,0630
Manawatu Pharmacies Limited,Life Pharmacy The Plaza,MidCentral DHB,"Shop 108, The Plaza Shopping Centre",84 The Square,,Palmerston North,4410
Manawatu Pharmacies Limited,Life Pharmacy Whangaparaoa,Waitemata DHB,"Shop 10, The Plaza",719 Whangaparaoa Road,Stanmore Bay,Whangaparaoa,0930
Manawatu Pharmacies Limited,Unichem Awapuni Pharmacy,MidCentral DHB,,96 College Street,Awapuni,PALMERSTON NORTH,4412
Manawatu Pharmacies Limited,Unichem Terrace End Pharmacy,MidCentral DHB,,325 Broadway Avenue,,Palmerston North,4414
Mangawhai Pharmacy 2017 Limited,Mangawhai Pharmacy,Northland DHB,,12C Wood Street,Mangawhai Heads,Mangawhai,0505
Mangere Bridge Community Pharmacy Limited,Mangere Bridge Village Pharmacy,Counties Manukau DHB,,41 Coronation Road,Mangere Bridge,Auckland,2022
Mangere Bridge Pharmacy Limited,Mangere Bridge Pharmacy Limited,Counties Manukau DHB,,25 Coronation Road,Mangere Bridge,Auckland,2022
Mangere Community Pharmacy Limited,Unichem Mangere Pharmacy,Counties Manukau DHB,,12 Waddon Place,Mangere,AUCKLAND,2022
Mangere East Community Pharmacy Limited,Unichem Mangere East Pharmacy,Counties Manukau DHB,,7a/359 Massey Road,Mangere East,Auckland,2024
Maniototo Pharmacy Limited,Maniototo Pharmacy,Southern DHB,,25 Charlemont Street,,Ranfurly,9332
Manly Pharmacy Limited,Unichem Manly Medical Pharmacy,Waitemata DHB,,5/54 Rawhiti Road,Manly,Whangaparaoa,0930
Manly Pharmacy Limited,Unichem Manly Pharmacy,Waitemata DHB,,53B Rawhiti Road,Manly,Whangaparoa,0930
Manners Pharmacy (2016) Limited,Life Pharmacy Manners Street,Capital and Coast DHB,Ground Floor,50 Manners Street,Wellington Central,Wellington,6142
Manukau Pharmacy (2011) Limited,Life Pharmacy Manukau,Counties Manukau DHB,Shop 38 Westfield Shopping Centre,Corner Great South Road & Wiri Station Road,Manukau,AUCKLAND,2241
Manurewa Medical Centre Pharmacy Limited,Manurewa Medical Centre Pharmacy,Counties Manukau DHB,"Manurewa Medical Centre, Ground Floor",157 Great South Road,Manurewa,AUCKLAND,2102
Mapua Pharmacy Limited,Mapua Pharmacy Limited,Nelson Marlborough DHB,,66/68 Aranui Road,Mapua,NELSON,7005
Marchwiel Pharmacy (2005) Limited,Marchwiel Pharmacy,South Canterbury DHB,,255 Selwyn Street,Marchwiel,TIMARU,7910
Margaret Neill Pharmacy Limited,Unichem Neill's Pharmacy,Auckland DHB,Shop 2,Mt Wellington Shopping Centre,Mt Wellington,Auckland,1130
Marina Chemist Limited,Unichem Marina Pharmacy,Counties Manukau DHB,"Tenancy 5, Compass Building",1 Ara Tai,Half Moon Bay,Auckland,2012
Marlborough United Friendly Society Dispensary,Marlborough UFS Dispensary,Nelson Marlborough DHB,,2-6 Queen Street,,Blenheim,7201
Marshall's Pharmacy Taradale Limited,Gees Pharmacy,Hawkes Bay DHB,,279 Gloucester Street,Taradale,NAPIER,4112
Marshlands Family Pharmacy Limited,Marshlands Family Pharmacy,Canterbury DHB,,427 Marshland Road,Marshland,Christchurch,8051
Martinborough Pharmacy Limited,Unichem Martinborough Pharmacy,Wairarapa DHB,,5 Oxford Street,,Martinborough,5711
Marton Pharmacy Limited,Marton Pharmacy Limited,Whanganui DHB,,292 Broadway,,Marton,4710
Massey Pharmacy (2002) Limited,Massey Unichem Pharmacy,Waitemata DHB,,"Unit D, 396 Don Buck Road",Massey,Auckland,0614
Masterton Medical Pharmacy Limited,Masterton Medical Pharmacy Limited,Wairarapa DHB,,4A Colombo Road,Lansdowne,Masterton,5810
Matakana Pharmacy Limited,Matakana Pharmacy,Waitemata DHB,Shop 16,2 Matakana Valley Road,Matakana,Rodney District,0985
Matlo Limited,Hammersley Pharmacy,Canterbury DHB,,202 Hills Road,Edgeware,CHRISTCHURCH,8013
Maunganui Road Pharmacy Limited,Maunganui Road Pharmacy Limited,Bay of Plenty DHB,Unit 32,436 - 438 Maunganui Road,,Mount Maunganui,3116
Maungatapu Pharmacy Limited,Maungatapu Pharmacy,Bay of Plenty DHB,"Unit F, Maungatapu Shopping Centre",287 - 291 Maungatapu Road,Maungatapu,TAURANGA,3148
Maunu Pharmacy Limited,Maunu Pharmacy Ltd,Northland DHB,,115A Maunu Road,Woodhill,WHANGAREI,0110
Mavourneen Limited,KTown Pharmacy,Bay of Plenty DHB,,26 Islington Street,,Kawerau,3127
Maxcare Pharmacy Limited,Maxcare Pharmacy,Auckland DHB,,4/225 Great South Road,Otahuhu,Auckland,1062
McGlashen Pharmacy Limited,McGlashen Pharmacy,Nelson Marlborough DHB,,227 Queen Street,Richmond,NELSON,7020
McInnes Health Limited,Collingwood Street Pharmacy,Nelson Marlborough DHB,,132 Collingwood Street,,Nelson,7010
McKenzie Holdings Limited,Clive Pharmacy,Hawkes Bay DHB,,185 Main Road,,CLIVE,4102
McLaren Park Pharmacy 2007 Limited,McLaren Park Pharmacy,Waitemata DHB,,7/80 Bruce McLaren Road,Henderson,AUCKLAND,0612
McLeans Pharmacy 2016 Limited,McLeans Pharmacy,Tairawhiti DHB,,675 Childers Road,Elgin,Gisborne,4010
McSweeney Pharmacy Group Limited,Life Pharmacy Matamata,Waikato DHB,,54 Arawa Street,,MATAMATA,3400
McSweeney Pharmacy Group Limited,Unichem Matamata Pharmacy,Waikato DHB,,56 Rawhiti Avenue,,Matamata,3400
Meadowbank Pharmacy (2007) Limited,Life Pharmacy Meadowbank,Auckland DHB,"Shop 2, Meadowbank Shopping Centre",35 St Johns Road,Saint Johns,AUCKLAND,1072
Meadowlands Pharmacy Limited,Unichem Meadowlands Pharmacy,Counties Manukau DHB,"Shop 8, Meadowlands Shopping Plaza",112 Whitford Road,Somerville,Auckland,2014
Medi Centre Pharmacy (2007) Limited,Unichem Medi-Centre Pharmacy,Waitemata DHB,,131 Lincoln Road,Henderson,AUCKLAND,0610
MedicoPharm Limited,Unichem Mission Bay Pharmacy,Auckland DHB,,3 Patteson Avenue,Mission Bay,AUCKLAND,1071
Medpharm Group Limited,Panmure Pharmacy,Auckland DHB,,200 Queens Road,Panmure,Auckland,1072
Medpharm Group Limited,Tamaki Pharmacy,Auckland DHB,,6 Clifton Court,Panmure,Auckland,1072
Medpharm Group Limited,Unichem Panmure Pharmacy,Auckland DHB,,74-76 Queens Road,Panmure,Auckland,1072
Medplus Pharmacy Limited,Medplus Pharmacy,Waitemata DHB,,327 Lake Road,Hauraki,Auckland,0622
Merivale Pharmacy Limited,Alabasters Merivale Pharmacy,Canterbury DHB,,200 Papanui Road,Merivale,CHRISTCHURCH,8014
Methven Pharmacy Limited,Methven Pharmacy,Canterbury DHB,Shop 830,101 Main Street,,METHVEN,7730
MidCentral District Health Board,Palmerston North Hospital Pharmacy,MidCentral DHB,,50 Ruahine Street,Roslyn,Palmerston North,4414
MidCentral Pharmacy Services Limited,Steeds Pharmacy,MidCentral DHB,,244 Oxford Street,,Levin,5510
Miles Pharmacy Limited,Miles Pharmacy Limited,Canterbury DHB,,394A and 396 Ferry Road,,CHRISTCHURCH,8023
Milford Pharmacy Limited,Unichem Corner Pharmacy Milford,Waitemata DHB,,138 Kitchener Road,Milford,AUCKLAND,0620
Millhouse Pharmacy Limited,Millhouse Pharmacy Limited,Counties Manukau DHB,"Unit 1, Millhouse Court",128 Millhouse Drive,Howick,AUCKLAND,2013
Mills Pharmacy (2007) Limited,Unichem Mills Pharmacy,Southern DHB,,38 Kelvin Street,,INVERCARGILL,9810
Millwater Parkway Pharmacy Limited,Millwater Parkway Pharmacy,Waitemata DHB,Unit 19,175 Millwater Parkway,,Silverdale,0932
Millwater Parkway Pharmacy Limited,Otahuhu 7 Day Chemist,Auckland DHB,,15 - 23 Station Road,Otahuhu,Auckland,1062
Milson Pharmacy Limited,Milson Pharmacy,MidCentral DHB,,79 Milson Line,Milson,PALMERSTON NORTH,4414
Milton Pharmacy Limited,Milton Pharmacy,Southern DHB,,71 Union Street,,MILTON,9220
Mishrikipharmacy Limited,Avondale Medical Pharmacy,Auckland DHB,,256 Rosebank Road,Avondale,AUCKLAND,1026
Mitchells Pharmacy Limited,Unichem Arrowtown Pharmacy,Southern DHB,,20 Buckingham Street,,Arrowtown,9302
Mmishriki Limited,Glenavon Pharmacy,Auckland DHB,,268 Blockhouse Bay Road,Avondale,AUCKLAND,0600
Moera Pharmacy (2017) Limited,Moera Pharmacy,Hutt Valley DHB,,139 Randwick Road,Moera,Lower Hutt,5010
Mohammed Saad Al-Sabti,Fencibles Pharmacy,Counties Manukau DHB,,2/2 Fencible Drive,Howick,AUCKLAND,2014
Moore's Med Centre Pharmacy Limited,Thames Centre Pharmacy,Waikato DHB,,817 Rolleston Street,,THAMES,3500
Moorhouse Pharmacy 2003 Limited,Unichem Moorhouse Pharmacy,Canterbury DHB,,3 Pilgrim Place,Sydenham,Christchurch,8011
Mornington Pharmacy Limited,Mornington Pharmacy Limited,Southern DHB,,170 Eglinton Road,Mornington,DUNEDIN,9011
Morrison & Esquilant Limited,Pharmacy 145 on Victoria,Whanganui DHB,,145 Victoria Avenue,,Whanganui,4500
Mortimers & Frasers Pharmacy Limited,Life Pharmacy Blenheim,Nelson Marlborough DHB,,101A Market Street,,BLENHEIM,7201
Mosgiel Health Centre Pharmacy Limited,Mosgiel Health Centre Pharmacy Limited,Southern DHB,,23 Inglis Street,,MOSGIEL,9024
Mount Pharmacy Limited,Mount Pharmacy,Bay of Plenty DHB,,132 Maunganui Road,,MOUNT MAUNGANUI,3116
Mount Street Pharmacy Limited,Mahia Road Pharmacy,Counties Manukau DHB,,153 Mahia Road,Wattle Downs,AUCKLAND,2103
Mt Albert Village Pharmacy Limited,Mt Albert Village Pharmacy,Auckland DHB,,901 New North Road,Mount Albert,Auckland,1025
Mt Smart Pharmacy 2015 Limited,Unichem Mt Smart Pharmacy,Auckland DHB,,233 Mount Smart Road,Onehunga,Auckland,1061
Mt Taranaki Pharmacy Limited,Merrilands Pharmacy,Taranaki DHB,,"Shop 1, 200 Mangorei Road",Merrilands,New Plymouth,4312
Munro Burgess Limited,Unichem Cambridge Medical Pharmacy,Waikato DHB,,48 Alpha Street,,CAMBRIDGE,3450
Munro Burgess Limited,Unichem Cambridge Pharmacy,Waikato DHB,,52 Victoria Street,,CAMBRIDGE,3450
Musselburgh Pharmacy Limited,Macandrew Bay Pharmacy,Southern DHB,,490 Portobello Road,Macandrew Bay,DUNEDIN,9014
Musselburgh Pharmacy Limited,Musselburgh Pharmacy Limited,Southern DHB,,59 - 61 Musselburgh Rise,Musselburgh,DUNEDIN,9013
NDL Pharmaceuticals Limited,Royal Oak Pharmacy,Auckland DHB,,703A Manukau Road,Royal Oak,AUCKLAND,1023
Naenae Pharmacy Limited,Naenae Pharmacy Limited,Hutt Valley DHB,,29 Hillary Court,Naenae,LOWER HUTT,5011
Napier Balmoral Pharmacy Limited,Napier Balmoral Pharmacy Limited,Hawkes Bay DHB,,25 Munroe Street,Napier South,Napier,4110
Nelson City Pharmacy Limited,Life Pharmacy Nelson City,Nelson Marlborough DHB,Tenancy 2,191 Trafalgar Street,,Nelson,7010
Nelson Marlborough District Health Board,Nelson Hospital Pharmacy,Nelson Marlborough DHB,"Level 6, Percy Brunette Building",Tipahi Street,Nelson Hospital,Nelson,7042
Nelson Marlborough District Health Board,Wairau Hospital Pharmacy,Nelson Marlborough DHB,,Hospital Road,,BLENHEIM,7240
Neptune Pharmacy (2017) Limited,Unichem Springlands Pharmacy,Nelson Marlborough DHB,Shop 2,131 Middle Renwick Road,Springlands,Blenheim,7201
Netherby Pharmacy Limited,Netherby Pharmacy,Canterbury DHB,,214 Chalmers Avenue,,ASHBURTON,7700
Neville Kane Pharmacy (2003) Limited,Neville Kane Pharmacy,Waikato DHB,,960 Victoria Street,Whitiora,HAMILTON,3200
New Lynn Pharmacy (2015) Limited,Unichem New Lynn Pharmacy,Waitemata DHB,,19 Delta Avenue,New Lynn,AUCKLAND,0600
New Lynn West Dispensary Limited,New Lynn West Pharmacy,Waitemata DHB,,84A Titirangi Road,New Lynn,Auckland,0600
New North Pharmacy Limited,New North Pharmacy Limited,Auckland DHB,,944 New North Road,Mt Albert,AUCKLAND,1025
New Plymouth Pharmacy (2015) Limited,Life Pharmacy New Plymouth,Taranaki DHB,"Shop 13, Centre City Shopping Centre,",11 Gill Street,,NEW PLYMOUTH,4310
Newmarket Pharmacy Limited,Unichem Broadway Pharmacy,Auckland DHB,,197 Broadway,Newmarket,Auckland,1023
Newsham Park Pharmacy Limited,Newsham Park Pharmacy,Counties Manukau DHB,,41-45 Twomey Drive,,PUKEKOHE,2120
Newton Pharmacy Holdings Limited,Newton A-Z Pharmacy,Auckland DHB,,357 Karangahape Road,Auckland Central,Auckland,1010
Newtown Mall Chemists Limited,Newtown Mall Unichem Pharmacy,Capital and Coast DHB,"Shops 1, 2 & 3, Newtown Shopping Mall",195 Riddiford Street,Newtown,WELLINGTON,6021
Newtown Medical Centre Pharmacy Limited,Newtown Medical Centre Dispensary,Capital and Coast DHB,,33 Rintoul Street,Newtown,Wellington,6011
Newtown Pharmacy Limited,John Castle Chemists,Capital and Coast DHB,,139 Riddiford Street,Newtown,Wellingotn,6021
Ngaio Pharmacy Limited,Village Pharmacy Ngaio,Capital and Coast DHB,,57 Ottawa Road,Ngaio,WELLINGTON,6035
Ngatea Pharmacy (2015) Limited,Ngatea Feelgood Pharmacy,Waikato DHB,Shop 20,20 Orchard West Road,,NGATEA,3503
Ngongotaha Pharmacy Limited,Ngongotaha Pharmacy Limited,Lakes DHB,,17 Taui Street,Ngongotaha,ROTORUA,3010
Nick & Rima Limited,Hunters Corner Medical Centre Pharmacy,Counties Manukau DHB,,28 Hoteo Avenue,Papatoetoe,AUCKLAND,2025
Nicnat Limited,Mt Eden Pharmacy,Auckland DHB,,431 Mount Eden Road,Mount Eden,AUCKLAND,1024
Nico Jacobs Pharmacy Limited,City Care Pharmacy,Taranaki DHB,,10 Egmont Street,,NEW PLYMOUTH,4310
Nicola Johns Pharmacy Limited,Nicola Johns Pharmacy Limited,Auckland DHB,,37 Mayfair Place,Glen Innes,Auckland,1072
Nie's Pharmacy Limited,North Otago Pharmacy,Southern DHB,,213 - 215 Thames Street,,Oamaru,9400
North Harbour Pharmacy 2015 Limited,North Harbour Pharmacy,Waitemata DHB,Unit 1,326 Sunset Road,Windsor Park,AUCKLAND,0632
North Star Pharmacy Limited,North Star Pharmacy,Waitemata DHB,Shop 2,62 Hurstmere Road,Takapuna,Auckland,0622
Northcare 7 Day Pharmacy Limited,Northcare 7 Day Pharmacy,Waitemata DHB,,5 Home Place,Rosedale,Auckland,0632
Northcare Pukete Pharmacy (2016) Limited,Northcare Pukete Pharmacy,Waikato DHB,,10A Pukete Road,Saint Andrews,HAMILTON,3200
Northcare Thomas Rd Pharmacy (2016) Limited,Northcare Thomas Rd Pharmacy,Waikato DHB,,107 Thomas Road,Huntingdon,Hamilton,3210
Northcote Pharmacy Limited,Northcote Family Pharmacy,Waitemata DHB,,2/47 Pearn Crescent,Northcote,Auckland,0627
Northcross Pharmacy Limited,Northcross Pharmacy Limited,Waitemata DHB,,855 East Coast Road,Northcross,Auckland,0630
Northland District Health Board,Whangarei Hospital Pharmacy,Northland DHB,Pharmacy Department,Whangarei Hospital,Maunu Road,Whangarei,0110
Northlands Pharmacy (2003) Limited,Life Pharmacy Northlands,Canterbury DHB,"Shop 84, Northlands Mall",55 Main Road North,Papanui,CHRISTCHURCH,8052
Northmed Pharmacy Limited,Northmed Pharmacy,Waitemata DHB,,"Suite 3, 3 Akoranga Drive",Northcote,Auckland,0627
NutriRx Limited,Pharmcare Pharmacy,Waitemata DHB,,3084 Great North Road,New Lynn,AUCKLAND,0600
Oamaru Pharmacy 2018 Limited,Oamaru Pharmacy 2018 Limited,Southern DHB,,171 - 173 Thames Street,,Oamaru,9400
Ohope Beach Pharmacy 2014 Limited,Ohope Beach Pharmacy 2014 Limited,Bay of Plenty DHB,,262 Pohutukawa Avenue,,OHOPE,3121
Olsens Pharmacy (2002) Limited,Olsen's Health Centre Pharmacy,West Coast DHB,,30 - 34 Tainui Street,,Greymouth,7805
Olsens Pharmacy (2002) Limited,Unichem Olsen's Pharmacy,West Coast DHB,,1 Guinness Street,,GREYMOUTH,7805
Olympic Pharmacy Limited,Unichem Owles Pharmacy,Hutt Valley DHB,,45-47 Everest Avenue,Naenae,Lower Hutt,5011
Omokoroa Pharmacy Limited,Omokoroa Pharmacy,Bay of Plenty DHB,,170 Omokoroa Road,Omokoroa,TAURANGA,3172
Onehunga Family Pharmacy Limited,Onehunga Family Pharmacy,Auckland DHB,,163A Onehunga Mall,Onehunga,AUCKLAND,1061
Onerahi Pharmacy Limited,Unichem Onerahi Pharmacy,Northland DHB,,116 Onerahi Road,Onerahi,WHANGAREI,0110
Optimus Healthcare Limited,Optimus Healthcare,Auckland DHB,,Unit 4B Walls Road,Penrose,AUCKLAND,1061
Orangi Pharmacy and Health Limited,Darfield Pharmacy,Canterbury DHB,,58 South Terrace,,DARFIELD,7510
Orewa Care Chemist Limited,Life Pharmacy Orewa,Waitemata DHB,,8D Tamariki Ave,,OREWA BEACH,0931
Ormiston Hospital Pharmacy Limited,Ormiston Hospital Pharmacy Limited,Counties Manukau DHB,,2/125 Ormiston Road,Flat Bush,AUCKLAND,2019
Orrs Cameron Pharmacy Limited,Life Pharmacy Orrs,Northland DHB,,48 Cameron Street Mall,,Whangarei,0110
Orrs Kaikohe Pharmacies Limited,Orrs Unichem Pharmacy Kaikohe,Northland DHB,,34 Broadway,,KAIKOHE,0405
Orrs Kaipara Pharmacies Limited,Orrs Unichem Pharmacy - Dargaville,Northland DHB,,Corner of Hokianga Road and Parenga Street,,Dargaville,0310
Orrs Maungaturoto Pharmacy Limited,Unichem Orrs Pharmacy Maungaturoto,Northland DHB,,144-146 Hurndall Street West,,Maungaturoto,0520
Orrs Ruakaka Pharmacy Limited,Orrs Unichem Pharmacy Ruakaka,Northland DHB,"Shop 16, Ruakaka Town Centre",Marsden Point Road,,RUAKAKA,0151
Orrs Rust Ave Pharmacy Limited,Orrs Kowhai Pharmacy,Northland DHB,"Unit B, Kowhai Court",27 Rust Avenue,,Whangarei,0110
Orrs Rust Ave Pharmacy Limited,Orrs Medicine Packaging Pharmacy,Northland DHB,"Unit E, Kowhai Court",27 Rust Avenue,,Whangarei,0110
Orrs Tui Pharmacy Limited,Unichem Orrs Pharmacy Tui,Northland DHB,,7 Tui Crescent,Maunu,Whangarei,0110
Ostend Village Pharmacy Limited,Ostend Village Pharmacy Limited,Auckland DHB,,9A Belgium Street,Ostend,WAIHEKE ISLAND,1081
Otahuhu Central Pharmacy Limited,Unichem Otahuhu Health Centre Pharmacy,Auckland DHB,Shop 7A,507 Great South Road,Otahuhu,Auckland,1062
Otahuhu Community Pharmacy Limited,Otahuhu Community Pharmacy,Auckland DHB,,115 Church Street,Otahuhu,Auckland,1062
Otahuhu Healthcare Pharmacy Limited,Unichem Otahuhu Mainstreet Pharmacy,Auckland DHB,,461 Great South Road,Otahuhu,AUCKLAND,1062
Otahuhu Medical Clinic Pharmacy Limited,Otahuhu Medical Clinic Pharmacy,Auckland DHB,,463 Great South Road,Otahuhu,AUCKLAND,1062
Otara Community Pharmacy Limited,Unichem Otara Pharmacy,Counties Manukau DHB,,"Unit 1, 120 East Tamaki Road",Otara,Auckland,2023
Owhata Pharmacy Limited,Owhata Pharmacy,Lakes DHB,,553 Te Ngae Road,Owhata,Rotorua,3010
Oxford Pharmacy (2013) Limited,Oxford Pharmacy,Canterbury DHB,,49B Main Street,,OXFORD,7430
P W Ferreira Limited,Lake Taupo Pharmacy,Lakes DHB,,117 Heuheu Street,,Taupo,3330
PA-MA-KO Limited,Unichem Parkside Pharmacy,Canterbury DHB,,2 Riccarton Avenue,Riccarton,CHRISTCHURCH,8011
PCO Pharmacies Limited,Unichem Beerescourt Pharmacy,Waikato DHB,,1365 Victoria Street,Beerescourt,Hamilton,3200
PCO Pharmacies Limited,Unichem Grey Street Pharmacy,Waikato DHB,,354 Grey Street,Hamilton East,Hamilton,3216
PCS Pharmacy Limited,Mangere Pharmacy,Counties Manukau DHB,"Shop 48, Mangere Town Centre",93 Bader Drive,Mangere,Auckland,1010
PTL Investments Limited,Whitby Pharmacy,Capital and Coast DHB,Shops 8 and 9,Whitby Village Centre,Whitby,WELLINGTON,5024
PTL Woburn Limited,Woburn Pharmacy,Hutt Valley DHB,,66 Whites Line East,Waiwhetu,Lower Hutt,5010
Pahurehure Pharmacy Limited,Pahurehure Pharmacy,Counties Manukau DHB,"Shops 7 & 7A, Pahurehure Shopping Centre",corner Elliot Street & Rushgreen Avenue,Papakura,Auckland,2113
Paihia Pharmacy Limited,Paihia Pharmacy,Northland DHB,,4 Williams Road,,Paihia,0200
Pakuranga Pharmacy Limited,Pakuranga Pharmacy,Counties Manukau DHB,,96 Ti Rakau Drive,Pakuranga,Auckland,2010
Palechori Limited,Life Pharmacy Baycourt Kilbirnie,Capital and Coast DHB,"Shop 9, Kilbirnie Plaza",26 Bay Road,Kilbirnie,Wellington,6022
Palm Springs Pharmacy Limited,My Pharmacy Palm Springs,Bay of Plenty DHB,,3 Palm Springs Boulevard,Papamoa Beach,Papamoa,3118
Palms Pharmacy (2013) Limited,Life Pharmacy The Palms,Canterbury DHB,"Shop 7, The Palms Shopping Centre",19-21 Marshland Road,Shirley,CHRISTCHURCH,8061
Palomino Pharmacy Limited,Palomino Pharmacy,Waitemata DHB,,7/138 Sturges Road,Henderson,Auckland,0612
Papakura Family Pharmacy Limited,Urban Pharmacy,Counties Manukau DHB,,207 Great South Road,Papakura,Auckland,2110
Papakura Pharmacy Limited,Unichem Papakura Pharmacy,Counties Manukau DHB,Ground Floor,285-291 Great South Road,,Papakura,2110
Papamoa Pines Pharmacy Limited,Unichem Papamoa Pharmacy,Bay of Plenty DHB,,26 Gravatt Road,Papamoa Beach,Papamoa,3118
Papanui Pharmacy (2008) Limited,Papanui Pharmacy,Canterbury DHB,,438 Papanui Road,Strowan,Christchurch,8052
Papatoetoe City Centre Pharmacy Limited,Unichem Papatoetoe Pharmacy,Counties Manukau DHB,,3/63 St George Street,Papatoetoe,Auckland,2025
Papatoetoe Pharmacy Limited,Your Health Centre Pharmacy,Counties Manukau DHB,,488 Great South Road,Papatoetoe,AUCKLAND,1701
Parie Pharmaceuticals Limited,Balmoral Pharmacy,Auckland DHB,,611 Dominion Road,Mount Eden,Auckland,1041
Parklands Pharmacy (2015) Limited,Unichem Parklands Pharmacy,Canterbury DHB,"Shops 4-6, Parklands Shopping Centre",60 Queenspark Drive,Parklands,CHRISTCHURCH,8083
Parkside Pharmacy Auckland Limited,Parkside Pharmacy Auckland Limited,Auckland DHB,Level 9,57 Fort Street,Auckland Central,Auckland,1010
Paul Messerschmidt Limited,Parkvale Pharmacy,Hawkes Bay DHB,,3/800 St Aubyn Street East,,HASTINGS,4122
Peak Pharmacy Limited,Dentons Peak Pharmacy,Hawkes Bay DHB,,33 - 35 Napier Road,,HAVELOCK NORTH,4130
Pegasus Pharmacy Practice Limited,Pegasus Pharmacy,Canterbury DHB,,52 Pegasus Main Street,,Pegasus,7612
Peninsula Health (2010) Limited,Akaroa Pharmacy,Canterbury DHB,,55 Beach Road,,AKAROA,7520
Peninsula Pharmacy Limited,Unichem Harbour View Pharmacy,Waitemata DHB,,382-386 Te Atatu Road,Te Atatu Peninsula,Auckland,0610
Peninsula Pharmacy Limited,Unichem Peninsula Pharmacy,Waitemata DHB,,550 Te Atatu Road,Te Atatu Peninsula,Auckland,0610
Peter Balle Pharmacy Limited,Peter Balle Pharmacy Limited,Auckland DHB,,303A Kepa Road,Mission Bay,AUCKLAND,1071
Peter Boles Pharmacy Limited,Peter Boles Pharmacy Limited,Counties Manukau DHB,,6/33 Fellbrook Street,Manurewa,Auckland,2102
Peter Sloggett Limited,Mangere Health Centre Pharmacy,Counties Manukau DHB,Mangere Health Centre,6 Waddon Place,Mangere,Auckland,2022
Peter Sugden Pharmacy Limited,Taradale Medical Pharmacy,Hawkes Bay DHB,,20 Puketapu Road,Taradale,NAPIER,4112
Peter Sugden Pharmacy Limited,Unichem Taradale Pharmacy,Hawkes Bay DHB,,288 Gloucester Street,Taradale,NAPIER,4112
Petone Pharmacy Limited,Unichem Petone Pharmacy,Hutt Valley DHB,,240 - 242 Jackson Street,Petone,Lower Hutt,5012
Petros Pharmacy Limited,West Harbour Pharmacy,Waitemata DHB,Shop 6,45 Luckens Road,West Harbour,AUCKLAND,0618
Pewhairangi & Brown Limited,Horouta Pharmacy,Tairawhiti DHB,,92 De Latour Road,Inner Kaiti,Gisborne,4010
Pharmaceutical Compounding NZ Limited,Compound Labs,Waitemata DHB,,62C Diana Drive,Wairau Valley,AUCKLAND,0627
Pharmacy 2000 NZ Limited,Unichem Airport Pharmacy,Counties Manukau DHB,,"Suite 4, 400 George Bolt Memorial Drive",Auckland Airport,Auckland,2022
Pharmacy 257 Limited,Pharmacy 257 Limited,Bay of Plenty DHB,,257 Maunganui Road,,MOUNT MAUNGANUI,3116
Pharmacy 277 Limited,Life Pharmacy Newmarket,Auckland DHB,Shop 1,300 - 302 Broadway,Newmarket,Auckland,1023
Pharmacy 44 Limited,Pharmacy 44 On Pukaki,Lakes DHB,,1135 Pukaki Street,,ROTORUA,3010
Pharmacy 44 Limited,Pharmacy 44 on Hinemoa,Lakes DHB,,1276 Hinemoa Street,,ROTORUA,3010
Pharmacy 455 Mt Eden Limited,Pharmacy 455 Mt Eden,Auckland DHB,,455D Mt Eden Road,Mt Eden,AUCKLAND,1024
Pharmacy 53 Limited,Pharmacy 53,Tairawhiti DHB,,10 Ballance Street,Whataupoko,Gisborne,4010
Pharmacy 547 Limited,Pharmacy 547,Waikato DHB,,531 Grey Street,Hamilton East,HAMILTON,3216
Pharmacy 547 Limited,Pharmacy 547 at Enderley,Waikato DHB,,66 Tennyson Road,Enderley,Hamilton,3214
Pharmacy At Anglesea Limited,Anglesea Pharmacy,Waikato DHB,"Gate 2, Anglesea Clinic",7-9 Thackeray Street,Hamilton Central,HAMILTON,3204
Pharmacy At Quay Park 2018 Limited,Pharmacy At Quay Park 2018 Limited,Auckland DHB,,68 Beach Road,Auckland Central,Auckland,1010
Pharmacy B102 Limited,Unichem Metro Pharmacy Bethlehem,Bay of Plenty DHB,"Shops A8 & A9, Bethlehem Town Centre",19 Bethlehem Road,Bethlehem,TAURANGA,3110
Pharmacy Care Group Limited,Unichem Northern Clinic Pharmacy,Waitemata DHB,,212 Wairau Road,Wairau Valley,Auckland,0627
Pharmacy Direct North Shore Limited,Pharmacy Direct,Waitemata DHB,,45A Paul Matthews Road,Rosedale,AUCKLAND,0632
Pharmacy Enterprises (2004) Limited,Dee Street Pharmacy,South Canterbury DHB,,5 Dee Street,,TIMARU,7910
Pharmacy Futures Limited,Sanders Pharmacy,Waikato DHB,,3/670 Cambridge Road,,Te Awamutu,3800
Pharmacy G101 Limited,Life Pharmacy Queensgate,Hutt Valley DHB,"Shop S130, Westfield Queensgate",corner of Queens Drive & Bunny Street,,LOWER HUTT,5010
Pharmacy Holdings Motueka Limited,Life Pharmacy Motueka,Nelson Marlborough DHB,,179 High Street,,Motueka,7120
Pharmacy Holdings Takaka Limited,Golden Bay Pharmacy,Nelson Marlborough DHB,,17 Commercial Street,,Takaka,7110
Pharmacy K103 Limited,Unichem Kopata Pharmacy,Hutt Valley DHB,,60 - 62 Bloomfield Terrace,Hutt Central,LOWER HUTT,5010
Pharmacy L105 Limited,Unichem Lambton Quay Pharmacy,Capital and Coast DHB,Bowen House,74 - 82 Lambton Quay,Wellington Central,Wellington,6011
Pharmacy N106 Limited,Life Pharmacy North City,Capital and Coast DHB,"Shop 125, North City Shopping Centre",2 Titahi Bay Road,Porirua City Centre,PORIRUA,5022
Pharmacy On Dominion Limited,Pharmacy On Dominion,Auckland DHB,,504 Dominion Road,Mt Eden,AUCKLAND,1024
Pharmacy On Main Limited,Pharmacy On Main Limited,Waikato DHB,,82 - 86 Main Street,,HUNTLY,3700
Pharmacy Plus (2006) Limited,Pharmacy Plus,Counties Manukau DHB,,161 Great South Road,,Papakura,2110
Pharmacy Services Limited,Papakura Marae Pharmacy,Counties Manukau DHB,,29 Hunua Road,,PAPAKURA,2110
Pharmacy Solutions Limited,Carterton Pharmacy,Wairarapa DHB,,46 - 50 High Street South,,Carterton,5713
Pharmacy Solutions Limited,Duncan's Pharmacy,Wairarapa DHB,,445 Queen Street,Kuripuni,Masterton,5810
Pharmacy Solutions Limited,Langs Pharmacy,Wairarapa DHB,,33 Fitzherbert Street,,Featherston,5710
Pharmacy Solutions Limited,Life Pharmacy Masterton,Wairarapa DHB,,132 - 136 Queen Street,,Masterton,5810
Pharmacy Solutions Limited,Mana Pharmacy,Capital and Coast DHB,,2/107 Mana Esplanade,Paremata,Porirua,5026
Pharmacy West End Limited,Pharmacy West End Limited,Lakes DHB,,227 Old Taupo Road,Hillcrest,ROTORUA,3015
Pharmacycare Northcote Limited,Unichem Northcote Pharmacy,Waitemata DHB,,"1, 3 & 5 Pearn Place",Northcote,Auckland,0627
Pharmacysave Limited,One Tree Hill Pharmacy,Auckland DHB,Bradfords Shopping Centre,Shop 4/395 Great South Road,Ellerslie,Auckland,1051
Pharmville NZ Limited,Pharmville St Albans Pharmacy,Auckland DHB,Unit 6,433 Dominion Road,Mt Eden,Auckland,1024
Pharmville Queen Street Pharmacy Limited,Pharmville Queen Street Pharmacy,Auckland DHB,,"Tenancy 2, 125 Queen Street",Auckland Central,Auckland,1010
Philip Clare Pharmacy 2011 Limited,Nawton Pharmacy,Waikato DHB,,107 Grandview Road,Nawton,HAMILTON,3200
Phoenix Pharmacy (2001) Limited,Phoenix Pharmacy (2001) Limited,Bay of Plenty DHB,"Shop 2, Phoenix House",11 Pyne Street,,WHAKATANE,3120
Picton Street Pharmacy (2004) Limited,Life Pharmacy Howick Village,Counties Manukau DHB,,75 Picton Street,Howick,AUCKLAND,2014
Pilldrop Software Limited,Pilldrop Pharmacy,Auckland DHB,,Level 1/4 Hotunui Drive,Mount Wellington,Auckland,1060
Platts Pharmacy 2016 Limited,Platt's Pharmacy,Whanganui DHB,,69 High Street,,Bulls,4818
Plimmer Steps Pharmacy (2018) Limited,Unichem Plimmer Steps Pharmacy,Capital and Coast DHB,Shop GA,354 Lambton Quay,Wellington Central,Wellington,6011
Pohutukawa Coast Pharmacy Limited,Pohutukawa Coast Pharmacy,Counties Manukau DHB,Unit 4,129A Beachlands Road,Beachlands,Auckland,2018
Point Chevalier Pharmacy Limited,Unichem Point Chevalier Pharmacy,Auckland DHB,,1209-1213 Great North Road,Point Chevalier,AUCKLAND,1022
Pokeno Pharmacy Limited,Pokeno Pharmacy,Counties Manukau DHB,,31 Great South Road,,Pokeno,2402
Pollen Street Pharmacy Limited,Pollen Street Pharmacy,Waikato DHB,Shop B,330A Pollen Street,,Thames,3500
Ponsonby Pharmacy 2018 Limited,Unichem 218 Ponsonby Pharmacy,Auckland DHB,,218 Ponsonby Road,Ponsonby,Auckland,1011
Porirua Pharmacy (2018) Limited,Porirua Pharmacy,Capital and Coast DHB,Shop 3,18 Mungavin Avenue,Ranui,Porirua,5024
Porirua United Friendly Societies Dispensary,Porirua UFS Pharmacy,Capital and Coast DHB,"Ground Floor, Shop 2",4A Cobham Court,Porirua City Centre,PORIRUA,5022
Port Chalmers Pharmacy Limited,Port Chalmers Pharmacy Limited,Southern DHB,,24 George Street,,PORT CHALMERS,9023
Premier Pharmacy Manurewa Limited,Unichem Manurewa Pharmacy,Counties Manukau DHB,,198-200 Great South Road,Manurewa,AUCKLAND,2102
Prestons Pharmacy Limited,Unichem Prestons Pharmacy,Canterbury DHB,Shop 3,420 Marshland Road,Prestons,Christchurch,8083
Prochem Pharmacy Limited,Prochem Pharmacy,Auckland DHB,,1862 Great North Road,Avondale,AUCKLAND,1026
Prohealth Pharmacy Limited,Prohealth Pharmacy,Counties Manukau DHB,,"Unit C, 230 Great South Road",Papatoetoe,Auckland,2025
Pukekohe Central Pharmacy Limited,Unichem Manukau Road Pharmacy Pukekohe,Counties Manukau DHB,,"Unit A, 149 Manukau Road",Pukekohe,Auckland,2120
Pukekohe Pharmacy (2005) Limited,Unichem Pukekohe Pharmacy,Counties Manukau DHB,,16 West Street,,Pukekohe,2120
Pukekohe South Pharmacy Limited,Pukekohe South Pharmacy,Counties Manukau DHB,,241 Manukau Road,,PUKEKOHE,2120
Pupuke Pharmacy Limited,Unichem Milford Pharmacy,Waitemata DHB,,174A Kitchener Road,Milford,Auckland,0620
Putaruru Pharmacy Limited,Unichem Putaruru Pharmacy,Waikato DHB,,"Ground Floor, 3 Duke Street",,PUTARURU,3411
QE 11 Pharmacy Limited,QE 11 Pharmacy Limited,Canterbury DHB,Shop 1,251 Travis Road,New Brighton,CHRISTCHURCH,8083
Queen St Pharmacy Limited,Queen Street Pharmacy,Nelson Marlborough DHB,,215 Queen Street,,RICHMOND,7020
Queen Street Pharmacy Limited,Queen Street Pharmacy Limited,Hutt Valley DHB,,35 Queen Street,,Upper Hutt,5018
Queen Street Pharmacy Services Limited,Queen Street Pharmacy Services Limited,Auckland DHB,,31 Queen Street,Otahuhu,AUCKLAND,1062
Queenstown Pharmacy Limited,Queenstown Pharmacy,Southern DHB,Queenstown Medical Centre Building,Corner Brecon & Isle Streets,,QUEENSTOWN,9300
Quins Gore Pharmacy Limited,Unichem Quin's Gore Pharmacy,Southern DHB,,104 Main Street,,Gore,9710
RPG Medicine Management Limited,Unichem The Palms Pharmacy,MidCentral DHB,Suite 1,445 Ferguson Street,,Palmerston North,4410
Rachelle Kazenbroot Pharmacy Limited,Netpharmacy,Auckland DHB,,109-111 Parnell Road,Parnell,Auckland,1052
Radius Pharmacy Greenmeadows Limited,Unichem Pharmacy Greenmeadows,Hawkes Bay DHB,,522-524 Kennedy Road,Greenmeadows,NAPIER,4112
Radius Pharmacy Napier Limited,Unichem Munroe St. Pharmacy,Hawkes Bay DHB,,32 Munroe Street,Napier South,NAPIER,4110
Radius Pharmacy Riccarton Limited,Unichem Riccarton Clinic Pharmacy,Canterbury DHB,,4 Yaldhurst Road,Upper Riccarton,CHRISTCHURCH,8041
Radius Pharmacy Te Rapa Limited,Unichem Rototuna Pharmacy,Waikato DHB,"Shop number 14 -16, Rototuna Retail Centre",corner of Thomas Road & Horsham Downs Road,,HAMILTON,3210
Radius Pharmacy Te Rapa Limited,Unichem Te Rapa Pharmacy,Waikato DHB,,26 Bryant Road,St Andrews,HAMILTON,3200
Radius Pharmacy Upper Hutt Limited,Unichem Maidstone Pharmacy,Hutt Valley DHB,,53 Main Street,,UPPER HUTT,5018
Radius Pharmacy Waikanae Limited,Unichem Levin Pharmacy,MidCentral DHB,,209 Oxford Street,,LEVIN,5510
Radius Pharmacy Waikanae Limited,Unichem Waikanae Beach Pharmacy,Capital and Coast DHB,,41 - 43 Te Moana Road,Waikanae Beach,Waikanae,5036
Radius Pharmacy Waikanae Limited,Unichem Waikanae Health Pharmacy,Capital and Coast DHB,,Marae Lane,Waikanae,Kapiti Coast,5036
Radius Pharmacy Wanganui Limited,Unichem Whanganui Pharmacy,Whanganui DHB,,36 Fitzherbert Avenue,Springvale,Whanganui,4501
Raglan Pharmacy 2005 Limited,Raglan Pharmacy,Waikato DHB,,8 Bow Street,,RAGLAN,3225
Rangatira Pharmacy Limited,Unichem Rangatira Pharmacy,Waitemata DHB,,338-342 Rangatira Road,Beach Haven,Auckland,0626
Rangiora Encounter Limited,Stan's 7 Day Pharmacy Rangiora,Canterbury DHB,,"Shop 4, 15 Ashley Street",,Rangiora,7400
Rangiora Pharmacy (1998) Limited,Rangiora Pharmacy,Canterbury DHB,,17 Durham Street,,Rangiora,7400
Raniga Company Limited,Midwest Pharmacy,Auckland DHB,,2144 - 2146 Great North Road,Avondale,AUCKLAND,0600
Ranui Pharmacy Limited,Ranui Pharmacy,Waitemata DHB,,421 Swanson Road,Ranui,AUCKLAND,0612
Ratanui Community Pharmacy Limited,Unichem Ratanui Pharmacy,Waitemata DHB,,77 Lincoln Road,Henderson,AUCKLAND,0610
Rathgar Road Pharmacy Limited,Rathgar Road Pharmacy Limited,Waitemata DHB,Shop 4,128 Rathgar Road,Henderson,Auckland,0610
Raumati Road Pharmacy Limited,Raumati Road Pharmacy,Capital and Coast DHB,Ground Floor,18 Raumati Road,Raumati Beach,PARAPARAUMU,5032
Rawene Pharmacy Limited,Rawene Pharmacy Limited,Northland DHB,,15 Parnell Street,Rawene,Kaikohe,0473
Ray Fashion Limited,Ray Pharmacy Meadowbank,Auckland DHB,,10A / 35 St Johns Road,St Johns,AUCKLAND,1072
Red Beach Pharmacy (1995) Limited,Unichem Red Beach Pharmacy,Waitemata DHB,"Shop 8, Red Beach Shopping Centre",Red Beach Road,Red Beach,Whangaparaoa,0932
Redcliffs Pharmacy Limited,Redcliffs Pharmacy Limited,Canterbury DHB,,87 Main Road,Redcliffs,Christchurch,8081
Redicare Pharmacy 2011 Limited,Redicare Pharmacy,Waikato DHB,,130 Rostrevor Street,Hamilton Central,Hamilton,3204
Redwood Pharmacy 2002 Limited,Redwood Pharmacy,Canterbury DHB,,282 Main North Road,Redwood,CHRISTCHURCH,8051
Remarkables Park Pharmacy Limited,Remarkables Park Pharmacy,Southern DHB,Remarkables Park Shopping Centre,53/12 Hawthorne Drive,Frankton,Queenstown,9300
Remuera Pharmacy Limited,Remuera Pharmacy Limited,Auckland DHB,,377 Remuera Road,Remuera,AUCKLAND,1050
Riccarton Encounter Limited,Remedy Pharmacy - Riccarton,Canterbury DHB,,107 Wainui Street,Riccarton,Christchurch,8041
Riccarton Mall Pharmacy 2000 Limited,Life Pharmacy Riccarton,Canterbury DHB,Westfield Riccarton,129 Riccarton Road,Riccarton,CHRISTCHURCH,8041
Richardson Road Medical Centre Pharmacy Limited,Unichem Richardson Road Pharmacy,Auckland DHB,,443 Richardson Road,Mt Roskill,AUCKLAND,1041
Richardson's Pharmacy (2006) Limited,Care Pharmacy Hastings,Hawkes Bay DHB,,301 Heretaunga Street West,Hastings Central,HASTINGS,4122
Richmond Mall Pharmacy (2001) Limited,Unichem Richmond Mall Pharmacy,Nelson Marlborough DHB,"Shop 1, Richmond Mall",216 Queen Street,,RICHMOND,7020
Richmond Road Pharmacy Limited,Richmond Road Pharmacy,Auckland DHB,,446 Richmond Road,Grey Lynn,AUCKLAND,1021
Roberts Ngaruawahia Pharmacy Limited,Ngaruawahia Pharmacy,Waikato DHB,,23 Jesmond Street,,NGARUAWAHIA,3720
Roberts Ngaruawahia Pharmacy Limited,Roberts Ngaruawahia Pharmacy,Waikato DHB,,11 Galileo Street,,NGARUAWAHIA,3720
Robertsons Pharmacy Limited,Robertsons High Street Pharmacy,Taranaki DHB,,94 High Street,,HAWERA,4610
Robertsons Pharmacy Limited,Robertsons Hunter Street Pharmacy,Taranaki DHB,,41 Hunter Street,,HAWERA,4610
Robertsons Pharmacy Limited,Robertsons Strandon Pharmacy,Taranaki DHB,,488 Devon Street East,Strandon,New Plymouth,4312
Robertsons Pharmacy Limited,Robertsons The Valley Pharmacy,Taranaki DHB,The Valley Mega Centre,1 Struthers Place,Waiwhakaiho,NEW PLYMOUTH,4312
Robinsons Of Riccarton Pharmacy Limited,Robinsons Pharmacy,Canterbury DHB,Shop 1B,32 Oxford Terrace,Christchurch Central,Christchurch,8011
Rolleston Central Limited,Unichem Rolleston Central Pharmacy,Canterbury DHB,"Shop 3, Rolleston Square East",9 Masefield Drive,,Rolleston,7614
Rolleston Pharmacy Limited,Unichem Rolleston Village Pharmacy,Canterbury DHB,,92 Rolleston Drive,,ROLLESTON,7614
Ropata Pharmacy Limited,Ropata Pharmacy Limited,Hutt Valley DHB,,577 High Street,Boulcott,LOWER HUTT,5010
Rosedale Pharmacy 2015 Limited,Unichem Family Pharmacy Albany,Waitemata DHB,,368 Albany Highway,Albany,AUCKLAND,0632
Rosedale Pharmacy 2015 Limited,Unichem Rosedale Pharmacy,Waitemata DHB,Unit B2 & B3,372 Rosedale Road,Rosedale,AUCKLAND,0632
Roseland Pharmacy Limited,Graeme Avenue Pharmacy,Counties Manukau DHB,Shop 4,2 Graeme Avenue,Mangere East,AUCKLAND,2024
Roses Pharmacy Limited,Unichem Roses Pharmacy,MidCentral DHB,,281-283 Broadway Avenue,Terrace End,PALMERSTON NORTH,4441
Roskill Healthcare Pharmacy Limited,Roskill Healthcare Pharmacy,Auckland DHB,,1011 Dominion Road,Mount Roskill,AUCKLAND,1041
Roskill Village Pharmacy Limited,Unichem Roskill Village Pharmacy,Auckland DHB,,1490 Dominion  Road Extension,Mount Roskill,AUCKLAND,1041
Roslyn Village Pharmacy Limited,Unichem Roslyn Pharmacy,Southern DHB,,287A & 287B Highgate,Roslyn,DUNEDIN,9010
Rossmont Pharmacy 2012 Limited,Vogel Street Pharmacy,MidCentral DHB,Shops 6 & 7,47 Vogel Street,Roslyn,PALMERSTON NORTH,4414
Royal Heights Pharmacy (2015) Limited,Royal Heights Pharmacy,Waitemata DHB,Shops 7 & 8,138 Royal Road,Massey,AUCKLAND,0614
Royal Oak Pharmacy 2018 Limited,Unichem Royal Oak Pharmacy,Auckland DHB,"Shop 13, Royal Oak Mall",691 Manukau Road,Royal Oak,Auckland,1023
Ruapehu Pharmacy Limited,Unichem Ruapehu Pharmacy,Whanganui DHB,,21 Goldfinch Street,,Ohakune,4625
Russell Street Pharmacy Hastings (2015) Limited,Unichem Russell Street Pharmacy,Hawkes Bay DHB,Ground Floor,110 Russell Street South,Hastings,HAWKES BAY,4122
Russell Village Pharmacy Limited,Russell Pharmacy,Northland DHB,,21 York Street,,Russell,0202
Rust Avenue Dispensary (1999) Limited,Rust Avenue Dispensary,Northland DHB,,22 Rust Avenue,Central,WHANGAREI,0110
Rx Redwoodtown Limited,Unichem Redwoodtown Pharmacy,Nelson Marlborough DHB,,70 Cleghorn Street,Redwoodtown,Blenheim,7201
S & A Chang Limited,Victoria Street West Pharmacy,Auckland DHB,,77A Victoria Street West,Auckland Central,AUCKLAND,1010
SDM Limited,Victory Square Pharmacy,Nelson Marlborough DHB,,172 St Vincent Street,Victory Square,Nelson,7010
SE10 Healthcare Limited,Moturoa Pharmacy,Taranaki DHB,,492 St Aubyn Street,Moturoa,NEW PLYMOUTH,4310
SKP18 Limited,Unichem Medical Corner Pharmacy,Canterbury DHB,,237A High Street,,Rangiora,7400
SOJ Pharmacy Limited,Fitzroy Pharmacy,Taranaki DHB,,552 Devon Street East,Fitzroy,NEW PLYMOUTH,4312
Sai Pharmacy Limited,Family Health Pharmacy,Counties Manukau DHB,,32B George Street,,TUAKAU,2121
Samnem Limited,Ranolf Pharmacy,Lakes DHB,,59 Ranolf Street,Victoria,Rotorua,3010
Sandringham Community Pharmacy Limited,Unichem Sandringham Pharmacy,Auckland DHB,,2 Kitchener Road,Sandringham,AUCKLAND,1025
Sanford Pharmacy Limited,Life Pharmacy Kapiti Coast,Capital and Coast DHB,,2/11 Amohia Street,Kapiti Lights Complex,PARAPARAUMU,5032
Sanvan Limited,Pharmacy 81 on Heu Heu,Lakes DHB,,81 Heu Heu Street,,Taupo,3330
Savine Holdings Limited,Bay Pharmacy Motueka,Nelson Marlborough DHB,,125 High Street,,Motueka,7120
Sean Shivnan Pharmacy Limited,Sean Shivnan Pharmacy Limited,Tairawhiti DHB,,578 Gladstone Road,Te Hapara,GISBORNE,4010
Searles Allenton Pharmacy [Ash] Limited,Searles Allenton Pharmacy,Canterbury DHB,,67 Harrison Street,Allenton,Ashburton,7700
Searles Allenton Pharmacy [Ash] Limited,Three Rivers Pharmacy,Canterbury DHB,,7-11 Allens Road,Allenton,Ashburton,7700
Seddon Street Pharmacy 2013 Limited,Seddon Pharmacy,Counties Manukau DHB,,"Unit 1, 13A Hall Street",,Pukekohe,2120
Selwyn Community Pharmacy Limited,Selwyn Community Pharmacy,Canterbury DHB,,5B Gerald Street,,LINCOLN,7608
Selwyn Pharmacy Limited,Selwyn Village Pharmacy,Canterbury DHB,,316 Selwyn Street,Spreydon,Christchurch,8024
Seven Day Pharmacy Limited,Seven Day Pharmacy Limited,Auckland DHB,,202 Ponsonby Road,Ponsonby,AUCKLAND,1011
Shields Pharmacy Limited,Shields Pharmacy Limited,Canterbury DHB,,95 Main North Road,Papanui,CHRISTCHURCH,8052
Shirley Dispensary Limited,Shirley Dispensary Limited,Canterbury DHB,,13 Marshland Road,Shirley,CHRISTCHURCH,8061
Shop 29 Limited,Life Pharmacy Barrington,Canterbury DHB,"Shop 54, Barrington Shopping Centre",256 Barrington Street,Spreydon,Christchurch,8024
Shore City Pharmacy (2010) Limited,Life Pharmacy Takapuna,Waitemata DHB,Westfield Shore City,52-56 Anzac Street,Takapuna,Auckland,0622
Shortland Street Pharmacy Limited,Shortland Street Pharmacy,Auckland DHB,,51 Shortland Street,Auckland Central,Auckland,1010
Silk Pharmacy Holdings Limited,Life Pharmacy St Heliers,Auckland DHB,,23 St Heliers Bay Road,St Heliers,Auckland,1071
Silk Pharmacy Holdings Limited,Unichem St Heliers Medical Pharmacy,Auckland DHB,,10C Turua Street,St Heliers,Auckland,1071
Silverdale Clinic Pharmacy Limited,Silverdale Clinic Pharmacy,Waitemata DHB,,2/7 Polarity Rise,Silverdale,Auckland,0932
Silverdale Community Pharmacy Limited,Unichem Silverdale Pharmacy,Waitemata DHB,,25/61 Silverdale Street,Silverdale,Auckland,0932
Silverstream Pharmacy Limited,Silverstream Pharmacy Limited,Hutt Valley DHB,"Shop 11, Silverstream Village",Whitemans Road,Silverstream,UPPER HUTT,5019
Simon's Pharmacy Limited,Unichem Drummonds Pharmacy,Capital and Coast DHB,,204a Main Road,Tawa,WELLINGTON,5028
Simon's Pharmacy Limited,Unichem Simon's Pharmacy,Capital and Coast DHB,,189 Main Road,Tawa,WELLINGTON,5028
Sinel-Francis Pharmacy Limited,"Unichem the Mall Pharmacy, Rotorua",Lakes DHB,"Shop 27, Rotorua Central Mall",1170 Amohau Street,,ROTORUA,3045
Smart Health Enterprises Limited,Smartcare Pharmacy Panmure,Auckland DHB,,137 Queens Road,Panmure,Auckland,1072
Snyders Pharmacy Limited,Bader Street Pharmacy,Waikato DHB,,5A Bader Street,Bader,HAMILTON,3206
Soulmates Limited,Hawkins Pharmacy,Whanganui DHB,,71 Moana Street,Whanganui East,Whanganui,4500
South Canterbury District Health Board,Timaru Hospital Pharmacy,South Canterbury DHB,"Level 2, Clinical Services Building, Timaru Hospital",14 Queen Street,Parkside,TIMARU,7910
South Canterbury Pharmacy Limited,Sydenham Central Pharmacy,Canterbury DHB,Shop 1,359 Colombo Street,Sydenham,CHRISTCHURCH,8023
South City Health Pharmacy 2012 Limited,South City Health Pharmacy 2012 Limited,Waikato DHB,,91 Kahikatea Drive,Melville,HAMILTON,3206
South City Pharmacy 2013 Limited,South City Pharmacy,Canterbury DHB,Shop 16,555 Colombo Street,Christchurch Central,CHRISTCHURCH,8011
South City Pharmacy Invercargill Limited,Riverton Pharmacy,Southern DHB,,168 Palmerston Street,,Riverton,9822
South City Pharmacy Invercargill Limited,Southcity Pharmacy,Southern DHB,,249 Elles Road,Strathern,INVERCARGILL,9812
South Seas Community Pharmacy Limited,South Seas Pharmacy,Counties Manukau DHB,Unit 1,126a Bairds Road,Otara,Auckland,2023
South Seas Community Pharmacy Limited,Unichem South Seas Pharmacy,Counties Manukau DHB,,9/14 Fairmall Place,Otara Town Centre,AUCKLAND,2023
Southend Pharmacy Limited,Unichem Southend Pharmacy,Wairarapa DHB,,266 Queen Street,,Masterton,5810
Southern District Health Board,"Pharmacy Department, Dunedin Hospital",Southern DHB,,201 Great King Street,Dunedin Central,Dunedin,9016
Southern District Health Board,Southland Hospital Pharmacy,Southern DHB,"Pharmacy Department, Southland Hospital","1st Floor, 145 Kew Road",Kew,INVERCARGILL,9812
Spotted Fat Cat Limited,Snells Beach Pharmacy,Waitemata DHB,Shop 3,332 Mahurangi East Road,,Snells Beach,0920
St Albans Pharmacy (1999) Limited,St Albans Pharmacy,Canterbury DHB,,1073 Colombo Street,Edgeware,CHRISTCHURCH,8014
St John's Pharmacy (2004) Limited,St Johns Pharmacy,Whanganui DHB,,13B Great North Road,Saint Johns Hill,Whanganui,4501
St Lukes Medical Pharmacy Limited,St Lukes Medical Pharmacy,Auckland DHB,,52 St Lukes Road,Mount Albert,Auckland,1025
St Lukes Pharmacy Holdings Limited,Life Pharmacy St Lukes,Auckland DHB,Westfield St Lukes,80 St Lukes Road,Mount Albert,AUCKLAND,1025
St Lukes Pharmacy Holdings Limited,Unichem St Lukes Pharmacy,Auckland DHB,"Shop 213,Westfield St Lukes",80 St Lukes Road,Mount Albert,AUCKLAND,1025
St Martins Pharmacy Limited,St. Martins Pharmacy,Canterbury DHB,Shop 2,92 Wilsons Road South,St Martins,CHRISTCHURCH,8022
St Martins Pharmacy Limited,Waltham Pharmacy,Canterbury DHB,,87 Waltham Road,Sydenham,Christchurch,8023
Stafford Street Pharmacy 2018 Limited,Unichem Stafford Street Pharmacy,South Canterbury DHB,,278 Stafford Street,,Timaru,7910
Stanmore Bay Pharmacy Limited,Unichem Stanmore Bay Pharmacy,Waitemata DHB,Shop B2,570 Whangaparaoa Road,Stanmore Bay,Whangaparaoa,0932
Stantons Pharmacy Limited,Unichem Stantons Pharmacy,Canterbury DHB,Shop 6,346 Halswell Road,Halswell,Christchurch,8025
Stay Well Pharmacy Limited,Stay Well Pharmacy,Canterbury DHB,Unit 3,21-35 Shands Road,Hornby,CHRISTCHURCH,8042
Stephensons Pharmacy Limited,Stephensons Unichem Pharmacy,Waikato DHB,,64 Albert Street,,WHITIANGA,3510
Stevens Pharmacy 2003 Limited,Liddells Pharmacy,Counties Manukau DHB,,48 King Street,,Pukekohe,2120
Stewart's Pharmacy (2014) Limited,Stewart's Pharmacy,Southern DHB,,162 Dee Street,,Invercargill,9810
Stoddard Rd Community Pharmacy Ltd,Unichem Stoddard Rd Pharmacy,Auckland DHB,Shop Number 301A Roskill Retail Centre,22 Stoddard Road,Mt Roskill,AUCKLAND,1041
Stokes Valley Pharmacy (2009) Limited,Unichem Stokes Valley Pharmacy,Hutt Valley DHB,,190 Stokes Valley Road,Stokes Valley,Lower Hutt,5019
Stonefields Pharmacy Limited,Stonefields Pharmacy,Auckland DHB,"Shop 8, Stonefields Markets",40 Stonefields Avenue,Stonefields,Auckland,1072
Strathmore Park Pharmacy 2001 Limited,Strathmore Park Pharmacy,Capital and Coast DHB,Unit B,504 Broadway,Strathmore Park,WELLINGTON,6022
Summerfield's Frankton Pharmacy Limited,Unichem Summerfield's Pharmacy,Southern DHB,"Unit 1,2 & 3",1091 Frankton Road,,QUEENSTOWN,9300
SuperClinic Pharmacy Limited,SuperClinic Pharmacy Limited,Counties Manukau DHB,,260 Botany Road,Golflands,AUCKLAND,2013
Surrey Pharmacy Limited,Unichem Surrey Pharmacy,Auckland DHB,"Unit 2, Ground Floor",26 Surrey Crescent,Grey Lynn,AUCKLAND,1021
Swanson Pharmacy (2018) Limited,Swanson Pharmacy,Waitemata DHB,,708D Swanson Road,Swanson,Auckland,0612
Sylvan Bank Pharmacy (2010) Limited,Sylvan Bank Pharmacy,Southern DHB,,231 Yarrow Street,Richmond,INVERCARGILL,9810
T R Fenwick Limited,Unichem Fenwicks Pharmacy,Canterbury DHB,Ground Floor,129 Williams Street,,KAIAPOI,7630
T. & V.E. Hollings Limited,Otaika Pharmacy,Northland DHB,Otaika Shopping Centre,150 Otaika Road,Raumanga,WHANGAREI,0110
T.A. Pharma Limited,Unichem Marshalls Medical Pharmacy,Waikato DHB,,220 Bank Street,,TE AWAMUTU,3800
T.A. Pharma Limited,Unichem Marshalls Pharmacy,Waikato DHB,,156 Teasdale Street,,Te Awamutu,3800
TCS Pharmacy Group Limited,Pharmacy Xtra,Canterbury DHB,,3/347 Moorhouse Avenue,Sydenham,CHRISTCHURCH,8011
TJ Pharmacy Limited,Opunake Coastal Pharmacy,Taranaki DHB,,55 Tasman Street,,Opunake,4616
TM Albany Limited,Library Lane Pharmacy,Waitemata DHB,Unit 1C,40 Library Lane,Albany,Auckland,0632
TM Ravenswood Limited,We Care Pharmacy,Canterbury DHB,,Unit 5/3 Vernon Drive,,Lincoln,7608
Tahi Pharmaceuticals Limited,Tihi Pharmacy,Counties Manukau DHB,,7 Hill Road,Manurewa,AUCKLAND,2102
Taieri Pharmacy (2015) Limited,Unichem Taieri Pharmacy,Southern DHB,,2 Factory Road,,MOSGIEL,9024
Tairawhiti District Health Board,Gisborne Hospital Pharmacy,Tairawhiti DHB,,421 Ormond Road,Lytton West,GISBORNE,4010
Tairua Pharmacy (1986) Limited,Tairua Pharmacy (1986) Limited,Waikato DHB,Shop 1,226 Main Road,,TAIRUA,3508
Taita Pharmacy 2016 Limited,Taita Pharmacy 2016 Limited,Hutt Valley DHB,,1206 High Street,Taita,LOWER HUTT,5011
Takanini Clinic Pharmacy Limited,Unichem Takanini Village Pharmacy,Counties Manukau DHB,2b/Building 2,30 Walters Road,,TAKANINI,2112
Takanini Community Pharmacy Limited,Unichem Takanini Pharmacy,Counties Manukau DHB,,3-226 Great South Road,Takanini,Auckland,2112
Takanini Pharmacy Limited,Takanini Pharmacy Limited,Counties Manukau DHB,,106 Great South Road,Takanini,Auckland,2112
Taranaki District Health Board,Taranaki Base Hospital Pharmacy,Taranaki DHB,,David Street,Westown,NEW PLYMOUTH,4310
Taranaki Pharmacy Services Limited,Lander & Black Pharmacy,Taranaki DHB,,1 Devon Street East,,NEW PLYMOUTH,4310
Taranaki Pharmacy Services Limited,Smart Chemist Bell Block,Taranaki DHB,,5 Bell Block Court,Bell Block,New Plymouth,4312
Taranaki Pharmacy Services Limited,Tui Ora Family Health Pharmacy,Taranaki DHB,,36 Maratahu Street,Westown,New Plymouth,4310
Taranaki Pharmacy Services Limited,Unichem Ducks Pharmacy,Taranaki DHB,,4 Matai Street,,Inglewood,4330
Tararua Pharmacy Limited,Horowhenua Health Centre Pharmacy,MidCentral DHB,,62 Liverpool Street,,LEVIN,5510
Tararua Pharmacy Limited,Tararua Pharmacy,MidCentral DHB,,540 Queen Street East,,LEVIN,5510
Tarawera Pharmacy Limited,Owhata Medical Centre Pharmacy,Lakes DHB,Unit 1B,556 Te Ngae Road,Owhata,Rotorua,3010
Tarawera Pharmacy Limited,Tarawera Pharmacy Limited,Bay of Plenty DHB,,106 Onslow Street,,KAWERAU,3127
Tasman Pharmacies Limited,Greenwood St Pharmacy,Nelson Marlborough DHB,,6 Greenwood Street,,MOTUEKA,7120
Tasman Pharmacies Limited,Unichem 162 High St Pharmacy,Nelson Marlborough DHB,,162 High Street,,MOTUEKA,7120
Tatri Family Pharmacy Limited,Symonds Street Medical Centre Pharmacy,Auckland DHB,,57 Symonds Street,Grafton,Auckland,1010
Tatri Pharmacy Limited,Dodson Medical Pharmacy,Waitemata DHB,,4 Dodson Avenue,Milford,Auckland,0620
Tatri Pharmacy Limited,Milford Nutritional Pharmacy,Waitemata DHB,Shop 2,119 Kitchener Road,Milford,AUCKLAND,0620
Taumarunui Pharmacy Limited,Unichem Taumarunui Pharmacy,Waikato DHB,,93 Hakiaha Street,,Taumarunui,3920
Tauranga Pharmacy (2012) Limited,Life Pharmacy Tauranga,Bay of Plenty DHB,,53 Devonport Road,Tauranga Central,TAURANGA,3110
Te Awa The Base Pharmacy Limited,Life Pharmacy The Base,Waikato DHB,"Shop R29, Te Awa, The Base",cnr Te Rapa Road & Avalon Drive,Te Rapa,HAMILTON,3200
Te Awamutu Pharmacy Limited,Te Awamutu Pharmacy Limited,Waikato DHB,,168 Alexandra Street,,TE AWAMUTU,3800
Te Hiku Pharmacy Limited,Te Hiku Pharmacy,Northland DHB,,49 Redan Road,,Kaitaia,0410
Te Kauwhata Pharmacy 2017 Limited,Te Kauwhata Pharmacy 2017 Limited,Waikato DHB,,14 Main Road,,Te Kauwhata,3710
Te Kohao Health Nga Hua Pharmacy Limited,Nga Hua Pharmacy,Waikato DHB,,951 Wairere Drive,Hamilton East,HAMILTON,3216
Te Ngae Pharmacy (2010) Limited,Te Ngae Pharmacy,Lakes DHB,,"Unit 4A, 5 Tarawera Road",Lynmore,ROTORUA,3010
Te Puke Pharmacies Limited,Life Pharmacy Te Puke,Bay of Plenty DHB,,61 Jellicoe Street,,Te Puke,3119
Te Puke Pharmacies Limited,Unichem Te Puke Pharmacy,Bay of Plenty DHB,,14 Queen Street,,Te Puke,3119
Templeton Pharmacy (2015) Limited,Templeton Pharmacy,Canterbury DHB,,5 Kirk Road,Templeton,Christchurch,8042
Temuka Pharmacy 2012 Limited,Temuka Pharmacy 2012 Limited,South Canterbury DHB,,81 King Street,,TEMUKA,7920
Thames Pharmacy Limited,Unichem Heather Moore Pharmacy,Waikato DHB,,546 Pollen Street,,Thames,3500
The Ascot Hospital and Clinics Limited,MercyAscot Hospital Pharmacy,Auckland DHB,Mercy Hospital,98 Mountain Road,Epsom,AUCKLAND,1023
The Associated Chemists Limited,Urgent Pharmacy Dunedin,Southern DHB,,18 Filleul Street,Dunedin Central,Dunedin,9016
The Dispensaries Limited,Unichem Cashel Pharmacy,Canterbury DHB,,Shop 3/111 Cashel Street,Christchurch Central,Christchurch,8011
The Dispensaries Limited,Unichem Forte Pharmacy,Canterbury DHB,Shop 4,151 Kilmore Street,Central City,Christchurch,8011
The Dispensary (Chch) Limited,The Dispensary (Chch) Limited,Canterbury DHB,,914 Colombo Street,Christchurch Central,Christchurch,8013
The People Centre Pharmacy Limited,The People Centre Pharmacy,Counties Manukau DHB,,7 Halver Road,Manurewa,AUCKLAND,2102
The Pharmacy at The Hastings Health Centre Limited,The Pharmacy @ The Hastings Health Centre,Hawkes Bay DHB,The Hastings Health Centre,303 St Aubyn Street West,,Hastings,4122
The Takapuna Clinic Pharmacy Limited,Pharmacy on Hurstmere,Waitemata DHB,,2/99 Hurstmere Road,Takapuna,Auckland,0622
The Terrace Pharmacy Limited,City Pharmacies The Terrace,Capital and Coast DHB,Shop 9,70 The Terrace,Wellington Central,Wellington,6011
Thomas and William CK CO Limited,Unichem Belfast Pharmacy,Canterbury DHB,,"Unit 8, 812 Main North Road",Belfast,Christchurch,8051
Thorndon Pharmacy Limited,Thorndon Pharmacy Limited,Capital and Coast DHB,,111 Molesworth Street,Thorndon,Wellington,6011
Three Lamps Pharmacy Limited,Unichem Ponsonby Pharmacy,Auckland DHB,,1/283 Ponsonby Road,Ponsonby,AUCKLAND,1011
Titahi Bay Pharmacy Limited,Titahi Bay Pharmacy,Capital and Coast DHB,,24 Whitehouse Road,Titahi Bay,PORIRUA,5022
Titirangi Village Pharmacy Limited,Titirangi Village Pharmacy Limited,Waitemata DHB,,408 Titirangi Road,Titirangi,Auckland,0604
Tititea Pharmacy Limited,Aspiring Pharmacy,Southern DHB,,29 Helwick Street,,Wanaka,9305
Tokoroa Pharmacy Services Limited,Unichem Health Centre Pharmacy,Waikato DHB,Tokoroa Hospital,Gate 3 Maraetai Road,,TOKOROA,3420
Tokoroa Pharmacy Services Limited,Unichem Tokoroa Pharmacy,Waikato DHB,,221 Leith Place,,TOKOROA,3420
Total Health Pharmacy (2007) Limited,Total Health Pharmacy,Waikato DHB,,608 Pollen Street,,THAMES,3500
Tower Junction Pharmacy Limited,Unichem Tower Junction Pharmacy,Canterbury DHB,"Unit 7, Tower Junction Shopping Centre",Whiteleigh Avenue,Addington,CHRISTCHURCH,8024
Trident Pharmacy (2017) Limited,Life Pharmacy Prices,Nelson Marlborough DHB,,296 Hardy Street,,Nelson,7010
Trident Pharmacy (2017) Limited,Unichem Nelson Pharmacy,Nelson Marlborough DHB,Unit 1,105 Collingwood Street,,Nelson,7010
Tuam Investments Limited,Morrinsville Medical Centre Pharmacy,Waikato DHB,,17 - 19 Canada Street,,Morrinsville,3300
Tuam Investments Limited,Unichem Morrinsville Pharmacy,Waikato DHB,,72 Studholme Street,,Morrinsville,3300
Tui Pharmacy Limited,Tui Pharmacy Limited,Waikato DHB,,6 Gordonton Road,Chartwell,Hamilton,3210
Turangi Pharmacy 2012 Limited,Unichem Turangi Pharmacy,Lakes DHB,,19 Ohuanga Road,,TURANGI,3334
Turtle's Pharmacy Limited,Unichem Grays Pharmacy,Southern DHB,,62 Clyde Street,,BALCLUTHA,9230
Turuki Pharmacy Limited,Turuki Pharmacy,Counties Manukau DHB,,2/32 Canning Crescent,Mangere,Auckland,2022
Turuki Pharmacy Panmure Limited,Turuki Pharmacy Panmure,Auckland DHB,,62 Queens Road,Panmure,Auckland,1072
Ultra Health Limited,Newton Pharmacy,Auckland DHB,Shop 2,283 Karangahape Road,Auckland Central,AUCKLAND,1010
Unichem Manukau Pharmacy Limited,Unichem Manukau Pharmacy,Counties Manukau DHB,,652 Great South Road,Manukau,Auckland,2104
Unichem Marewa Pharmacy Limited,Marewa Pharmacy,Hawkes Bay DHB,,104 Kennedy Road,Marewa,Napier,4110
Unichem Marewa Pharmacy Limited,Unichem Marewa Pharmacy Limited,Hawkes Bay DHB,,126-128 Kennedy Road,Marewa,NAPIER,4110
Unichem Napier City Limited,Life Pharmacy Napier City,Hawkes Bay DHB,,131 Emerson Street,,NAPIER,4110
Unichem Spitfire Square Pharmacy Limited,Unichem Spitfire Square Pharmacy,Canterbury DHB,"Shop 14, Spitfire Square",544 Memorial Avenue,Christchurch Airport,CHRISTCHURCH,8053
Unihealth Pharmacy Takapuna Limited,Unihealth Pharmacy,Waitemata DHB,Countdown Complex,10 Barrys Point Road,Takapuna,AUCKLAND,0622
Union Street Pharmacy Limited,Union Street Pharmacy,Canterbury DHB,,18 Union Street,New Brighton,CHRISTCHURCH,8061
Upper Hutt Health Centre Pharmacy Limited,Unichem Upper Hutt Health Pharmacy,Hutt Valley DHB,,6 Sinclair Street,Ebdentown,UPPER HUTT,5018
Urgent Pharmacy Rotorua Limited,Lakes Care Pharmacy,Lakes DHB,,1155 Tutanekai Street,,ROTORUA,3010
Vaiola Pharmacy Limited,Vaiola Pharmacy,Auckland DHB,,1 Fleming Street,Onehunga,Auckland,1061
Vautier Pharmacy Limited,Vautier Pharmacy - Pioneer Village,MidCentral DHB,,746 Pioneer Highway,Takaro,Palmerston North,4412
Vautier Pharmacy Limited,Vautier Pharmacy - Summerhill Village,MidCentral DHB,,198 Ruapehu Drive,Fitzherbert,Palmerston North,4440
Vautier Pharmacy Limited,Vautier Pharmacy Downtown,MidCentral DHB,"Shop 22, Downtown Mall",495 Main Street,,Palmerston North,4410
Veda New Zealand Limited,Healthcare Pharmacy Clendon,Counties Manukau DHB,,9 - 11 Robert Ross Place,Clendon Park,AUCKLAND,2103
Village Pharmacy Limited,Crawford House Pharmacy,Counties Manukau DHB,Ground Floor,4 Picton Street,Howick,Auckland,2014
Viridian Pharmacy Limited,Hill Road Pharmacy,Counties Manukau DHB,Shop 6,7 Hill Road,Manurewa,Auckland,2012
Vivian Pharmacy Limited,Vivian Pharmacy Limited,Taranaki DHB,,95 Vivian Street,,NEW PLYMOUTH,4310
Vogeltown Pharmacy 2015 Limited,Vogeltown Pharmacy,Taranaki DHB,,272 Carrington Street,Vogeltown,NEW PLYMOUTH,4310
Waiheke Pharmacy Limited,Waiheke Unichem Pharmacy,Auckland DHB,,120 Ocean View Road,Oneroa,WAIHEKE ISLAND,1081
Waihi Beach Chemist 2007 Limited,Waihi Beach Chemist,Bay of Plenty DHB,,15 Wilson Road,,Waihi Beach,3611
Waikanae Pharmacy 2012 Limited,Westbury Pharmacy,Capital and Coast DHB,,12 Mahara Place,,WAIKANAE,5036
Waikato District Health Board,"Pharmacy Services, Waikato Hospital",Waikato DHB,,183 Pembroke Street,Hamilton Central,HAMILTON,3204
Waikiwi Pharmacy (2005) Limited,Unichem Waikiwi Pharmacy,Southern DHB,,280 North Road,Waikiwi,INVERCARGILL,9810
Waimauku Village Pharmacy Limited,Waimauku Pharmacy - Silver Fern,Waitemata DHB,"Shop C13, The Triangle",5-19 Factory Road,Waimauku,Auckland,0812
Waimauku Village Pharmacy Limited,Waimauku Village Pharmacy,Waitemata DHB,,8 Waimauku Station Road,,WAIMAUKU,0812
Wainuiomata Pharmacy (2015) Limited,Wainuiomata Pharmacy,Hutt Valley DHB,,8 The Strand,Wainuiomata,Lower Hutt,5014
Waiora Community Pharmacy Limited,Unichem Waiora Pharmacy,Waitemata DHB,Whanau House,4-8 Pioneer Street,Henderson,Auckland,0612
Waipapa Pharmacy Limited,Waipapa Unichem Pharmacy,Northland DHB,,5 Klinac Lane,RD 2,Kerikeri,0295
Waipawa Pharmacy Limited,Waipawa Pharmacy Limited,Hawkes Bay DHB,,24 High Street,,WAIPAWA,4210
Waipu Village Pharmacy Limited,Waipu Village Pharmacy Limited,Northland DHB,,6 The Centre,,Waipu,0510
Wairarapa District Health Board,Wairarapa Hospital Pharmacy,Wairarapa DHB,Pharmacy Department,Wairarapa Hospital,Te Ore Ore Road,MASTERTON,5810
Wairau Pharmacy 2008 Limited,Civic Health Pharmacy,Nelson Marlborough DHB,,18 Arthur Street,,Blenheim,7201
Wairau Pharmacy 2008 Limited,Wairau Pharmacy,Nelson Marlborough DHB,,47 Scott Street,,BLENHEIM,7201
Waitangirua Pharmacy Limited,Waitangirua Pharmacy Limited,Capital and Coast DHB,Waitangirua Health Centre,201 Warspite Avenue,,PORIRUA,5024
Waitara Pharmacy Limited,Waitara Pharmacy,Taranaki DHB,,56 McLean Street,,WAITARA,4320
Waitemata District Health Board,Auckland Opioid Treatment Service Pharmacy,Waitemata DHB,Pitman House,50 Carrington Road,Point Chevalier,Auckland,1025
Waitemata District Health Board,North Shore Hospital Pharmacy-Inpatient/Outpatient,Waitemata DHB,North Shore Hospital,Shakespeare Road,Takapuna,AUCKLAND,0740
Waitemata District Health Board,Waitakere Hospital Pharmacy - Inpatient/Outpatient,Waitemata DHB,Waitakere Hospital,55 Lincoln Road,Henderson,Auckland,0610
Waiuku Medical Pharmacy (2010) Limited,Unichem Waiuku Medical Pharmacy,Counties Manukau DHB,,30B Constable Road,,Waiuku,2123
Waiuku Pharmacy (2016) Limited,Unichem Waiuku Pharmacy,Counties Manukau DHB,,40 Queen Street,,Waiuku,2123
Wakatipu Pharmacy 2018 Limited,QT Pharmacy,Southern DHB,Shop 202 O'Connell's Mall,1/30 Camp Street,,Queenstown,9300
Wakefield Pharmacy (2012) Limited,Wakefield Pharmacy,Nelson Marlborough DHB,,4 Edward Street,,Wakefield,7025
Walker Holdings (2009) Limited,Otorohanga Express Pharmacy,Waikato DHB,,6 Hinewai Street,,OTOROHANGA,3900
Walker Holdings (2009) Limited,Unichem Otorohanga Pharmacy,Waikato DHB,Ground Floor,55 Maniapoto Street,,Otorohanga,3900
Wallace's Pharmacy Limited,Wallace's Pharmacy Limited,Southern DHB,,62-64 Windsor Street,Windsor,INVERCARGILL,9810
Walls & Roche Royal Oak Pharmacy Limited,Unichem Walls & Roche Royal Oak Pharmacy,Auckland DHB,,792 Manukau Road,Royal Oak,Auckland,1023
Walls & Roche Royal Oak Pharmacy Limited,Walls & Roche Medicine Management,Auckland DHB,Level 2,778-784 Manukau Road,Royal Oak,Auckland,1023
Wanacare Pharmacy Limited,Wanacare Pharmacy,Southern DHB,,23 Cardrona Valley Road,,WANAKA,9305
Wanaka Pharmacy Limited,Wanaka Pharmacy,Southern DHB,,41 Helwick Street,,WANAKA,9305
Wards Pharmacy Dannevirke Limited,Wards Pharmacy,MidCentral DHB,,51 High Street,,Dannevirke,4930
Warkworth Community Pharmacy Limited,Unichem Warkworth Pharmacy,Waitemata DHB,,2/23 Percy Street,Warkworth,Auckland,0910
Watapo Limited,Shorecare Pharmacy,Waitemata DHB,"Tenancy 8B, The Boulevard","Smales Farm, 74 Taharoto Road",Takapuna,Auckland,0622
Waugh's Pharmacy Limited,Waugh's Pharmacy Limited,Bay of Plenty DHB,,252 Welcome Bay Road,Welcome Bay,TAURANGA,3112
Waverley Pharmacy 2009 Limited,Waverley Pharmacy,Southern DHB,,97 Larnach Road,Vauxhall,Dunedin,9013
Weleda Pharmacy Limited,Weleda Pharmacy Limited,Hawkes Bay DHB,,302 Te Mata Road,,HAVELOCK NORTH,4294
Wellington Associated Pharmacists Limited,After Hours Pharmacy,Capital and Coast DHB,Ground Floor,17 Adelaide Road,Mount Cook,WELLINGTON,6021
Wellington Pharmacy (2016) Limited,Unichem Willis St. Pharmacy,Capital and Coast DHB,Ground Floor,58 Willis Street,Wellington Central,Wellington,6011
Wellington United Friendly Societies Dispensary,Wellington UFS Pharmacy,Capital and Coast DHB,Ground Floor,47 Courtenay Place,Te Aro,WELLINGTON,6011
Wellsford Pharmacy (2002) Limited,Wellsford Pharmacy (2002) Limited,Waitemata DHB,,156 Rodney Street,,Wellsford,0900
Wellworks Brooklyn Limited,Unichem Brooklyn Pharmacy,Capital and Coast DHB,"Shop 2,3 & 4",67 Cleveland Street,Brooklyn,Wellington,6021
Wellworks Pharmacy Limited,Wellworks Pharmacy,Capital and Coast DHB,Shop 1,75 Taranaki Street,Te Aro,Wellington,6011
West City Pharmacy (2010) Limited,Unichem West City Pharmacy,Auckland DHB,"Level 2, Shop 222, WestCity Waitakere Shopping Centre",7 Catherine Street,Henderson,Auckland,0612
West Coast District Health Board,Grey Base Hospital Pharmacy,West Coast DHB,Grey Base Hospital,Upper High Street,,GREYMOUTH,7805
West Melton Pharmacy Limited,Unichem West Melton Pharmacy,Canterbury DHB,Shop 12,736 Weedons Ross Road,,West Melton,7618
Western Heights Pharmacy Limited,Western Heights Pharmacy,Lakes DHB,,10 Brookland Road,Western Heights,Rotorua,3015
Westgate Community Pharmacy Limited,Westgate Pharmacy,Waitemata DHB,"Shop 6, Westgate Shopping Centre",1 Fernhill Drive,Westgate,Auckland,0614
Westland Pharmacy (2010) Limited,Westland Pharmacy (2010) Limited,West Coast DHB,,10 Weld Street,,Hokitika,7810
Westmere Pharmacy (2010) Limited,Westmere Pharmacy,Auckland DHB,,170 Garnet Road,Westmere,Auckland,1022
Westshore Pharmacy 2016 Limited,Westshore Pharmacy,Hawkes Bay DHB,,3 Alfred Street,Westshore,Napier,4110
Westview Pharmacy (1994) Limited,Westview Pharmacy,Waitemata DHB,"Tenancy 3, Westview Medical Centre",5 Glendale Road,Glen Eden,AUCKLAND,0602
Whakatane Pharmacy Limited,Total Health Chemist,Bay of Plenty DHB,,"Shop 3, 252 The Strand",,WHAKATANE,3120
Whangamata Pharmacy (2013) Limited,Whangamata Pharmacy,Waikato DHB,,429 Port Road,,Whangamata,3620
Whanganui District Health Board,Whanganui Hospital Pharmacy,Whanganui DHB,"Pharmacy Department, Whanganui Hospital",100 Heads Road,Gonville,WHANGANUI,4501
Whangaparaoa Family Pharmacy Limited,Whangaparaoa Family Pharmacy Limited,Waitemata DHB,,5/651 Whangaparaoa Road,Stanmore Bay,Whangaparaoa,0932
Whangarei Community Pharmacy Limited,Unichem Whangarei Pharmacy,Northland DHB,Shop 2,32 - 48 Reyburn Street,,Whangarei,0110
Whittakers Pharmacy Limited,Jeff Whittaker Pharmacy,Hawkes Bay DHB,,10 Napier Road,,HAVELOCK NORTH,4130
Whytes Pharmacy (2007) Limited,Unichem Chemist Shop,MidCentral DHB,,27 Linton Street,,Palmerston North,4410
Whytes Pharmacy (2007) Limited,Unichem Kauri Healthcare Pharmacy,MidCentral DHB,,619 Featherston Street,Roslyn,Palmerston North,4414
Wicksteed Pharmacy Limited,Wicksteed Pharmacy,Whanganui DHB,,214 Wicksteed Street,,WHANGANUI,4500
Wigmore Pharmacy (2005) Limited,Devonport Pharmacy,Waitemata DHB,,33 Victoria Road,Devonport,Auckland,0624
Wigram Pharmacy Limited,Unichem Wigram Pharmacy,Canterbury DHB,"Shop 8, The Landing",102 The Runway,Wigram,CHRISTCHURCH,8042
Willis Street Pharmacy Limited,Unichem Island Bay Pharmacy,Capital and Coast DHB,,141 The Parade,Island Bay,WELLINGTON,6023
Willis Street Pharmacy Limited,Unichem Molesworth Pharmacy,Capital and Coast DHB,,"Shop 9, 100 Molesworth Street",Thorndon,WELLINGTON,6011
Willis Street Pharmacy Limited,Unichem Wellington Central Pharmacy,Capital and Coast DHB,,204 Lambton Quay,Wellington Central,Wellington,6011
Willow Street Pharmacy Limited,Pharmacyhealth,Bay of Plenty DHB,,19 Second Avenue,,Tauranga,3110
Winton Pharmacy Limited,Winton Pharmacy,Southern DHB,,266 Great North Road,,WINTON,9720
Wiri Health Pharmacy Limited,Wiri Health Pharmacy,Counties Manukau DHB,Unit 10,792 Great South Road,Wiri,Auckland,2104
Wisemed Limited,Gimbletts Pharmacy,MidCentral DHB,,70 Main Street,,Foxton,4814
Wood Street Medical Centre Pharmacy Limited,Wood Street Medical Centre Pharmacy,Counties Manukau DHB,,48 Wood Street,Papakura,Auckland,2110
Woodham Road Pharmacy Limited,Woodham Road Pharmacy,Canterbury DHB,,"Shop 1, 23 Woodham Road",Linwood,Christchurch,8062
Woolston Pharmacy Limited,Woolston Pharmacy Limited,Canterbury DHB,,685 Ferry Road,Woolston,Christchurch,8023
Your Health Care Pharmacy Limited,White Swan Pharmacy,Auckland DHB,,460 Richardson Road,Mt Roskill,Auckland,1041
Your Local Pharmacy Limited,Silverstream Kaiapoi Pharmacy,Canterbury DHB,Shop 10,42 Silverstream Boulevard,Kaiapoi,Canterbury,7630
Zahara NZ Limited,Alberton Pharmacy,Auckland DHB,,99 St Lukes Road,Sandringham,AUCKLAND,1025
Zoom Care Limited,Zoom Care Limited,Auckland DHB,Pier 21 Building,11 Westhaven Drive,Auckland Central,Auckland,1010
